{
"type": "FeatureCollection",
"name": "aoi_new",
"crs": { "type": "name", "properties": { "name": "urn:ogc:def:crs:OGC:1.3:CRS84" } },
"features": [
{ "type": "Feature", "properties": { "name": null, "buffer_meters": null, "area_sq_km": null, "type": "Feature" }, "geometry": { "type": "MultiPolygon", "coordinates": [ [ [ [ 84.54880095650249, 27.856688552470981 ], [ 84.548742936868379, 27.856782414842701 ], [ 84.548276314071884, 27.859061371140157 ], [ 84.548646090359625, 27.861354322750156 ], [ 84.549814220333019, 27.863425040763548 ], [ 84.551660393648092, 27.865060178559698 ], [ 84.552295406723474, 27.865465201130142 ], [ 84.554464118152637, 27.866449075350495 ], [ 84.556863569553684, 27.866817308807462 ], [ 84.558071649402606, 27.866839315339988 ], [ 84.561026085694351, 27.866402129287138 ], [ 84.562080415186117, 27.865845608862855 ], [ 84.564742788403393, 27.866087316394186 ], [ 84.567782141141436, 27.867280894817998 ], [ 84.568129871179494, 27.867614719972323 ], [ 84.568210854084981, 27.867681629593399 ], [ 84.568147904217852, 27.868147217461456 ], [ 84.56803579980749, 27.869570204298821 ], [ 84.568323407142813, 27.872041149317948 ], [ 84.568851292922261, 27.873697171926853 ], [ 84.569768549583841, 27.875541256763707 ], [ 84.571224120351275, 27.877087882807825 ], [ 84.573596127076669, 27.878989976550411 ], [ 84.574036264134847, 27.879318557871891 ], [ 84.575937291822797, 27.880638628356863 ], [ 84.576764538844273, 27.88114315839579 ], [ 84.578438591872271, 27.882034212253533 ], [ 84.579105809967785, 27.882352763508528 ], [ 84.579385240955176, 27.882471600671032 ], [ 84.580669923310239, 27.883653604216956 ], [ 84.581581773648239, 27.884375158991542 ], [ 84.582770792999341, 27.885182202596589 ], [ 84.583435358659557, 27.885588476421493 ], [ 84.585182411158527, 27.886546533604907 ], [ 84.587162409558587, 27.887330298643054 ], [ 84.589305218402714, 27.887620825605104 ], [ 84.590842320149065, 27.887644833569382 ], [ 84.593193838792217, 27.887373950725053 ], [ 84.595357079221699, 27.886511150404893 ], [ 84.597792172132287, 27.885129079241185 ], [ 84.598632863173123, 27.884560673736985 ], [ 84.59894346579641, 27.884621289245015 ], [ 84.601469275945874, 27.884401646680935 ], [ 84.603096377223025, 27.884025628954216 ], [ 84.604819707701907, 27.883434478062366 ], [ 84.607389795635413, 27.882238570478233 ], [ 84.607888650923073, 27.88303384599147 ], [ 84.609266877994884, 27.884647165700279 ], [ 84.611095397896065, 27.885856637870067 ], [ 84.612414425897725, 27.886295547351551 ], [ 84.61252079780509, 27.886362721736159 ], [ 84.613362581981306, 27.886828331530044 ], [ 84.615333654744276, 27.887775391089789 ], [ 84.617129504358857, 27.888406338002877 ], [ 84.619042244690789, 27.888642752827227 ], [ 84.620460338537924, 27.888666760223227 ], [ 84.62216331374205, 27.888535734736887 ], [ 84.624881488999364, 27.888066715150938 ], [ 84.627319704251988, 27.887269916888425 ], [ 84.629862816173969, 27.885996850515724 ], [ 84.631167624589878, 27.885184246366094 ], [ 84.633003659884565, 27.883783178322453 ], [ 84.634551433586509, 27.882200565306693 ], [ 84.635521903919127, 27.880289421949861 ], [ 84.635798849502976, 27.879427402963678 ], [ 84.636074894747281, 27.878124682828741 ], [ 84.636215387732548, 27.876802509201788 ], [ 84.637689864920745, 27.876312062307189 ], [ 84.638469902972929, 27.875967044251961 ], [ 84.640525227710668, 27.874669477916978 ], [ 84.642033675198519, 27.87287431132879 ], [ 84.642849892632285, 27.870754557536937 ], [ 84.643037826556395, 27.869803542612324 ], [ 84.643086024608166, 27.869024775756731 ], [ 84.645491994992597, 27.869093914148404 ], [ 84.648345182713967, 27.868755903538659 ], [ 84.649384333449774, 27.868570783553984 ], [ 84.651485463255085, 27.868067759441296 ], [ 84.653707771872988, 27.867202064399585 ], [ 84.655543064306457, 27.865791535014871 ], [ 84.656504055819937, 27.864793491669513 ], [ 84.657786731308434, 27.862967607012013 ], [ 84.658348671779663, 27.861813573126106 ], [ 84.658972161490581, 27.859701114508947 ], [ 84.65896397908692, 27.859547275964378 ], [ 84.6614578031528, 27.858605789941546 ], [ 84.663546130972804, 27.85745906606493 ], [ 84.665398167654544, 27.856057997917727 ], [ 84.667100384798914, 27.854271662949099 ], [ 84.668056334093023, 27.852853611785697 ], [ 84.668791497741793, 27.851433745864977 ], [ 84.669257423988512, 27.85019571547106 ], [ 84.669600039122329, 27.848896343938993 ], [ 84.669675612989806, 27.848411320721773 ], [ 84.669833833971254, 27.848205709649804 ], [ 84.670642061189184, 27.846874637169577 ], [ 84.672117890620214, 27.843682546784905 ], [ 84.672700258317775, 27.841527830608644 ], [ 84.672519708473942, 27.839317621900737 ], [ 84.671966425592842, 27.837184585755359 ], [ 84.67192755660075, 27.836316271839721 ], [ 84.671838340552185, 27.835498727817331 ], [ 84.67162825197579, 27.834292734589948 ], [ 84.671100747579729, 27.832624288762101 ], [ 84.670759662330212, 27.831895650371642 ], [ 84.671608372469038, 27.831233837187924 ], [ 84.672894896632684, 27.8299606749841 ], [ 84.674335851266378, 27.828139603188127 ], [ 84.675130425267795, 27.826886108687855 ], [ 84.675691367281374, 27.825749075072952 ], [ 84.676123729005539, 27.824000824913846 ], [ 84.67725262560576, 27.823688314399107 ], [ 84.677684851836247, 27.823479026278783 ], [ 84.679696204378601, 27.822924293861064 ], [ 84.682899531134424, 27.82124878917972 ], [ 84.683236057536377, 27.820962842793993 ], [ 84.684210082920998, 27.82053817698819 ], [ 84.686318461168383, 27.819212099690791 ], [ 84.687781980646307, 27.817936519140162 ], [ 84.689353699516218, 27.817794340625479 ], [ 84.689924030888648, 27.817724498690929 ], [ 84.692384499445239, 27.817343680882971 ], [ 84.694979594067647, 27.817094806782396 ], [ 84.697587862211307, 27.816440018601426 ], [ 84.698834107993889, 27.815914400736656 ], [ 84.701989354724745, 27.815459593397414 ], [ 84.704849875906646, 27.815284412860194 ], [ 84.705579581780952, 27.815210101995355 ], [ 84.707595712975845, 27.814922091141863 ], [ 84.708828660323448, 27.814656682203942 ], [ 84.710687769941231, 27.814116654980637 ], [ 84.713272969854444, 27.812866742241024 ], [ 84.714944055360689, 27.811131761309934 ], [ 84.714965049851045, 27.811142268971537 ], [ 84.717082227236673, 27.81160920803919 ], [ 84.719262807856651, 27.811557965782754 ], [ 84.720002855967564, 27.811450961700825 ], [ 84.721709373464307, 27.811030178437129 ], [ 84.722988443746587, 27.810576154877275 ], [ 84.725009985034262, 27.809536996257158 ], [ 84.726413433725043, 27.808218602221654 ], [ 84.729885837987723, 27.807387486964366 ], [ 84.73014962575121, 27.807273245720459 ], [ 84.730462629690692, 27.80775722867817 ], [ 84.732170735567692, 27.809603879810268 ], [ 84.734463664340396, 27.81085298207099 ], [ 84.736728773298751, 27.811665038066511 ], [ 84.739602728988871, 27.812187195175653 ], [ 84.742001295699311, 27.812229560298015 ], [ 84.743455190896967, 27.812982145034415 ], [ 84.745632215348351, 27.813475461463835 ], [ 84.747714631996629, 27.81342337484935 ], [ 84.747713318538871, 27.813499445531392 ], [ 84.747726125831591, 27.814030365569398 ], [ 84.74780803260883, 27.815279364880581 ], [ 84.748208578650051, 27.817135590891333 ], [ 84.749137420769358, 27.818835710899883 ], [ 84.750530881876543, 27.820263129546738 ], [ 84.752700892571497, 27.821971214341026 ], [ 84.753015244828674, 27.822206303831614 ], [ 84.755765281338611, 27.824159406404465 ], [ 84.758770657741749, 27.825501140222332 ], [ 84.762725884842453, 27.826424212258708 ], [ 84.765386346759925, 27.826641008615962 ], [ 84.767981899799253, 27.826078298068069 ], [ 84.770147014831778, 27.825254254917553 ], [ 84.77230209534811, 27.824047649536382 ], [ 84.774103126469143, 27.82264458190344 ], [ 84.775282995290183, 27.821402699194891 ], [ 84.775628636469889, 27.821734573423814 ], [ 84.77768356779201, 27.822803742351649 ], [ 84.778802621811877, 27.82320376990538 ], [ 84.781146551243381, 27.823699072321489 ], [ 84.783550772891573, 27.823560962724983 ], [ 84.785803517712793, 27.822801603741286 ], [ 84.786702410918352, 27.822181015649566 ], [ 84.787147447073934, 27.822216670630063 ], [ 84.788675332782049, 27.82221072523933 ], [ 84.790505453713564, 27.822049721681733 ], [ 84.792842508407062, 27.821524340511207 ], [ 84.793494746203748, 27.82117222493914 ], [ 84.793627484783684, 27.821218161012389 ], [ 84.795864612397011, 27.821754202407984 ], [ 84.796632058046626, 27.821903091023774 ], [ 84.798203037928957, 27.822137726997685 ], [ 84.799537695100938, 27.82301589894147 ], [ 84.801615277884167, 27.82400458795431 ], [ 84.803610380246369, 27.82464363337742 ], [ 84.805990071509171, 27.825063285037093 ], [ 84.808934264668892, 27.825183303983625 ], [ 84.811747693667044, 27.824856696216674 ], [ 84.814262859215205, 27.823689302132646 ], [ 84.815079880836151, 27.823129274192613 ], [ 84.816270690278301, 27.821993564274603 ], [ 84.816748702520258, 27.822651310189801 ], [ 84.818272894116205, 27.823893118948131 ], [ 84.820129935584959, 27.825057183887761 ], [ 84.822967635108284, 27.826188034039674 ], [ 84.825775801003871, 27.826769080687033 ], [ 84.828186416608787, 27.826939106179086 ], [ 84.830546424174287, 27.826470355768283 ], [ 84.832371525544517, 27.825842322987828 ], [ 84.833869476837236, 27.825160581433934 ], [ 84.836209562443912, 27.823806511636608 ], [ 84.83754557122532, 27.822839511550349 ], [ 84.841209590231543, 27.819554360504728 ], [ 84.842413912632068, 27.818174337945894 ], [ 84.843210090505622, 27.816577505170891 ], [ 84.843552028864437, 27.81558048256889 ], [ 84.843749842895647, 27.814076391095373 ], [ 84.844982738158492, 27.81509334614513 ], [ 84.847262005296528, 27.816039481140447 ], [ 84.849757622735979, 27.816319810760135 ], [ 84.852013772411254, 27.816259815223866 ], [ 84.853699936496582, 27.816056322084904 ], [ 84.857329643054456, 27.815266810495178 ], [ 84.86036244746326, 27.814930608426124 ], [ 84.863241344491399, 27.814106626471194 ], [ 84.864872417637159, 27.813316584960024 ], [ 84.865969999420159, 27.812599869129674 ], [ 84.867629278177304, 27.813668409179687 ], [ 84.870800414352644, 27.815000495912557 ], [ 84.872388304501683, 27.815495964072582 ], [ 84.873059343970127, 27.815637975345176 ], [ 84.874758891485172, 27.815789000280375 ], [ 84.875081399208014, 27.815859085704261 ], [ 84.875665401428179, 27.816049361395766 ], [ 84.876312279312842, 27.816358231761171 ], [ 84.878980308597988, 27.81714143903066 ], [ 84.881068439944386, 27.817412463929813 ], [ 84.88433259044163, 27.8172444766866 ], [ 84.88467385646284, 27.817163568854227 ], [ 84.886988180537202, 27.817314488381374 ], [ 84.888280265704367, 27.817190484981072 ], [ 84.88934064605921, 27.817024870267467 ], [ 84.895226013139549, 27.815742808666386 ], [ 84.896185109797742, 27.815304255308408 ], [ 84.896735449479991, 27.815294885688296 ], [ 84.898950568172239, 27.814981608982354 ], [ 84.900077877291125, 27.814515936855813 ], [ 84.900646607708566, 27.814547865051672 ], [ 84.900894148186083, 27.814661063315445 ], [ 84.904470943787601, 27.815459223792043 ], [ 84.906015045715776, 27.815482230883063 ], [ 84.908118954683644, 27.815267947719388 ], [ 84.910088939305652, 27.814577145084609 ], [ 84.911788014075469, 27.813739101024556 ], [ 84.913471941022593, 27.812630434492704 ], [ 84.914651431356987, 27.81252708801248 ], [ 84.915697494643666, 27.812258074487541 ], [ 84.9182513913631, 27.811139149563065 ], [ 84.919086415812046, 27.810593122000643 ], [ 84.921002247416666, 27.808820655877245 ], [ 84.921205239841854, 27.808553645642846 ], [ 84.921966446083346, 27.80707328348409 ], [ 84.9234984851322, 27.806360396027124 ], [ 84.923542591153392, 27.806388909797274 ], [ 84.926479084849333, 27.807897740339371 ], [ 84.927968783384387, 27.809289529971554 ], [ 84.929882337813638, 27.810610940173184 ], [ 84.932330425196625, 27.811830014749752 ], [ 84.934463955241924, 27.812368625885217 ], [ 84.936120653389466, 27.815024401523658 ], [ 84.936347017205293, 27.815364920149705 ], [ 84.938309898098467, 27.818141010803735 ], [ 84.938622172305429, 27.818550760431428 ], [ 84.93966412972334, 27.819821807327255 ], [ 84.940321589761041, 27.820525401437639 ], [ 84.941487576522846, 27.821623450251312 ], [ 84.94419026289421, 27.823301769148145 ], [ 84.94597334579673, 27.823981814656172 ], [ 84.948888542844855, 27.824561925288876 ], [ 84.950359639637966, 27.824607933493208 ], [ 84.951667633754468, 27.824417415904218 ], [ 84.952674637340181, 27.82503946717906 ], [ 84.952964649272545, 27.825167475349556 ], [ 84.954792307777197, 27.825744262894876 ], [ 84.956721698277761, 27.825919235500557 ], [ 84.959209863278431, 27.825879241673686 ], [ 84.962788263548774, 27.825075764130254 ], [ 84.964182328754703, 27.824435730241145 ], [ 84.965014011158971, 27.823996201433872 ], [ 84.967520096451423, 27.822485123815362 ], [ 84.968793125829862, 27.821534680386069 ], [ 84.970330129981363, 27.820124616147769 ], [ 84.971021594999087, 27.819128743751612 ], [ 84.97286460277715, 27.818512741490874 ], [ 84.975066561805718, 27.816783628047798 ], [ 84.975924545271226, 27.81581158776094 ], [ 84.977225079730246, 27.813676749122521 ], [ 84.977859980860757, 27.812014708784357 ], [ 84.978128978720903, 27.810418040061389 ], [ 84.978511352791628, 27.81005151924192 ], [ 84.979317253157049, 27.810613526652165 ], [ 84.981494319125744, 27.811817597251867 ], [ 84.983944625293816, 27.812719217087182 ], [ 84.986098752811913, 27.813164252258662 ], [ 84.989674666622236, 27.813184049782123 ], [ 84.991023751883304, 27.812921037397235 ], [ 84.99325343315472, 27.812167324977406 ], [ 84.994104470104105, 27.81174330263455 ], [ 84.99450483407189, 27.811464250574062 ], [ 84.995862621805216, 27.811511942443577 ], [ 84.999332101508301, 27.810952350448389 ], [ 84.999991604543069, 27.810705548281533 ], [ 85.00183600254833, 27.811720779537506 ], [ 85.003483454466732, 27.812413662023172 ], [ 85.003642858565811, 27.812462104934912 ], [ 85.003671417743689, 27.813179455238249 ], [ 85.004217290284558, 27.815021479417595 ], [ 85.005082899892528, 27.81686121482814 ], [ 85.006021244862424, 27.818269588295536 ], [ 85.006224842570489, 27.818770042059125 ], [ 85.007063709016847, 27.821623609301 ], [ 85.00757767455805, 27.822697135753572 ], [ 85.00771929822487, 27.824116909760367 ], [ 85.007778640839746, 27.824429102834941 ], [ 85.007597805225544, 27.826546752203313 ], [ 85.007697731530499, 27.827537754191123 ], [ 85.008320908906782, 27.829734859980057 ], [ 85.009624946391114, 27.831574889584509 ], [ 85.009352415964528, 27.832226942435096 ], [ 85.009216336985844, 27.8343779469275 ], [ 85.009800398198593, 27.83646885123801 ], [ 85.009954378294623, 27.83679885851436 ], [ 85.011081283943525, 27.83850579691531 ], [ 85.011224812850401, 27.838667425389907 ], [ 85.011076488583413, 27.838989519982782 ], [ 85.010570599018607, 27.840598186252588 ], [ 85.010272480825506, 27.842276162929714 ], [ 85.010214561796033, 27.844131075126246 ], [ 85.010690548808086, 27.84593782410116 ], [ 85.0113574492255, 27.847517855430706 ], [ 85.013281304114173, 27.850141620190879 ], [ 85.015291297337399, 27.8518897019813 ], [ 85.017225980648888, 27.853135312662133 ], [ 85.020112094308502, 27.854468396296365 ], [ 85.021299222936179, 27.854914279666314 ], [ 85.021537159622952, 27.854984454633421 ], [ 85.021731361559972, 27.85562569423384 ], [ 85.022706278894518, 27.857245740221902 ], [ 85.024567539176914, 27.859310522804762 ], [ 85.026554555005049, 27.860831599405934 ], [ 85.028683865745265, 27.862007706639364 ], [ 85.031115348387175, 27.862550643028626 ], [ 85.033361679270357, 27.862733194750078 ], [ 85.039379315904526, 27.863828546841884 ], [ 85.041651039208986, 27.864393588864235 ], [ 85.043553824517232, 27.864656194820583 ], [ 85.045472698574656, 27.864513336916684 ], [ 85.047254812178949, 27.864188321766477 ], [ 85.049321758430438, 27.863430379332982 ], [ 85.051974488171552, 27.864625365664871 ], [ 85.052367731320601, 27.864721466385774 ], [ 85.053266826283391, 27.86521315746052 ], [ 85.054404286309662, 27.86602861130579 ], [ 85.056962035914879, 27.867266127400875 ], [ 85.059846595266421, 27.867622303796594 ], [ 85.060121839734975, 27.867611977515871 ], [ 85.061966491587825, 27.867837275506318 ], [ 85.063468620731484, 27.868906806849687 ], [ 85.066096559710687, 27.869710929348127 ], [ 85.068875722363458, 27.869680644365811 ], [ 85.071480687896013, 27.868819494969753 ], [ 85.07360011995307, 27.867233044096206 ], [ 85.073856428480809, 27.867153330447337 ], [ 85.075176487279421, 27.866514296501645 ], [ 85.077309190713109, 27.865023087260795 ], [ 85.077907218967454, 27.864191180443132 ], [ 85.078077882211574, 27.864264094175457 ], [ 85.080011910858559, 27.864838011616275 ], [ 85.081398521646818, 27.864925115680364 ], [ 85.082346381504209, 27.866526743612798 ], [ 85.083931363138717, 27.867989697745482 ], [ 85.085912174792483, 27.869002414267591 ], [ 85.08617583870037, 27.869096252829308 ], [ 85.087694002840195, 27.869901256138693 ], [ 85.090704676005487, 27.870847951593781 ], [ 85.091262711305404, 27.870918957970261 ], [ 85.094013118760103, 27.8708505710484 ], [ 85.094579154909567, 27.870749566332581 ], [ 85.096742059522938, 27.870069963015546 ], [ 85.098604861635863, 27.868880045345456 ], [ 85.099569097226151, 27.868057534882336 ], [ 85.100770539049137, 27.867446914882589 ], [ 85.101986850222502, 27.867073890076885 ], [ 85.10226106150013, 27.867455489730752 ], [ 85.102988855540872, 27.868318592421375 ], [ 85.104647509729361, 27.870006409561192 ], [ 85.105249097553255, 27.8712680117406 ], [ 85.106625254030845, 27.874899881346252 ], [ 85.107958196391294, 27.877080720189312 ], [ 85.10888516847622, 27.878119761267509 ], [ 85.110292303698458, 27.879353074700251 ], [ 85.111992987382209, 27.88024792832816 ], [ 85.112412006737358, 27.880410939099317 ], [ 85.114464797211511, 27.880937015831332 ], [ 85.115286138402283, 27.88094945000784 ], [ 85.116328279689384, 27.881655306860512 ], [ 85.117462819127553, 27.882115821816384 ], [ 85.118333689819565, 27.884628185128687 ], [ 85.119282187215632, 27.886431814950562 ], [ 85.12074910578707, 27.887936647995129 ], [ 85.124406131174183, 27.890778789971773 ], [ 85.124649201788046, 27.890960363809381 ], [ 85.12690146967158, 27.892577078947713 ], [ 85.12705800054124, 27.892850150404541 ], [ 85.126964202488537, 27.894420724434536 ], [ 85.127031544405085, 27.895805907648793 ], [ 85.127393375485113, 27.898097920396328 ], [ 85.127506561060827, 27.89865505187057 ], [ 85.12856425881759, 27.902901097590458 ], [ 85.129423405166335, 27.904723382817444 ], [ 85.129460482528415, 27.904923254067402 ], [ 85.129444048005851, 27.905081255642191 ], [ 85.12828695839832, 27.907857535611175 ], [ 85.126284057616516, 27.911134735332137 ], [ 85.125511313248353, 27.912941109425965 ], [ 85.125305678583558, 27.914864861069798 ], [ 85.125353597995414, 27.915939859957952 ], [ 85.126088452423957, 27.918666269148495 ], [ 85.127937250534316, 27.920938398536329 ], [ 85.130481254521683, 27.923041500144482 ], [ 85.13160434097999, 27.923780376648949 ], [ 85.132163893911297, 27.924354404916471 ], [ 85.134004768538034, 27.92575298346226 ], [ 85.136227992688234, 27.926607506039545 ], [ 85.13663201608486, 27.926702513221581 ], [ 85.138186451806789, 27.92685450116781 ], [ 85.138543459945041, 27.927117337662004 ], [ 85.139056477493099, 27.927383353644313 ], [ 85.139329696710035, 27.927468339305513 ], [ 85.138839055520322, 27.928971726665861 ], [ 85.138868037741105, 27.931088412357951 ], [ 85.139469230979174, 27.932775853350467 ], [ 85.139822062937654, 27.934041806342698 ], [ 85.140089488718573, 27.934813421968531 ], [ 85.140814378422633, 27.936552456454514 ], [ 85.140818468909814, 27.936551111575127 ], [ 85.141316524817938, 27.937918137304639 ], [ 85.14157450186417, 27.938358149595619 ], [ 85.143208351495701, 27.940276914732451 ], [ 85.145461458265927, 27.941612337267134 ], [ 85.147070716319561, 27.941982882229002 ], [ 85.148161179838795, 27.942499407051745 ], [ 85.149030986322828, 27.943179901602715 ], [ 85.149750954861375, 27.94525833233941 ], [ 85.151050740340608, 27.946783896706577 ], [ 85.151518511602333, 27.949040742238854 ], [ 85.152859127075843, 27.951133770608706 ], [ 85.153553590893296, 27.951673030225383 ], [ 85.153565109196947, 27.951895316887626 ], [ 85.153132015187254, 27.953778881591123 ], [ 85.153108985708243, 27.954175878837212 ], [ 85.153188050829897, 27.955153294482649 ], [ 85.153109457124273, 27.955355435602048 ], [ 85.152999471502397, 27.957401707318983 ], [ 85.15303144915768, 27.957700708117393 ], [ 85.153596075840227, 27.959742273258225 ], [ 85.154799220971626, 27.961552825072246 ], [ 85.156538874875679, 27.962978809726479 ], [ 85.158667508930662, 27.963899282691635 ], [ 85.158873520246203, 27.963957286878621 ], [ 85.160354406324018, 27.964147001179427 ], [ 85.160563092447234, 27.965656254190847 ], [ 85.16065707447521, 27.965924258594086 ], [ 85.162012979348347, 27.96822247793251 ], [ 85.162166974453442, 27.968397484809653 ], [ 85.164141650148352, 27.970005015362208 ], [ 85.16442814679526, 27.970115891235068 ], [ 85.164515532211169, 27.970304844257075 ], [ 85.165945101610617, 27.971897956431938 ], [ 85.167253307103977, 27.972718330161985 ], [ 85.167273756768708, 27.972736466108024 ], [ 85.167448820180098, 27.972840934039215 ], [ 85.167819045332237, 27.973073096254502 ], [ 85.167898187828925, 27.973109089310874 ], [ 85.169863468293201, 27.974281817045963 ], [ 85.171109512256038, 27.974512547665505 ], [ 85.171186130691808, 27.974576055759012 ], [ 85.172258156926091, 27.975235092757885 ], [ 85.172546423419561, 27.975359577517036 ], [ 85.172409167784394, 27.97568660325323 ], [ 85.172395614778665, 27.975727164116105 ], [ 85.172368064701971, 27.975761496262326 ], [ 85.171188125436913, 27.977917968831715 ], [ 85.17086872466794, 27.980298572821027 ], [ 85.171230225101908, 27.9869415704182 ], [ 85.171626274998189, 27.988844399262518 ], [ 85.172518115429668, 27.991256441417914 ], [ 85.173114048122983, 27.992279883268573 ], [ 85.173376996327036, 27.993566146150137 ], [ 85.173638538209062, 27.994492039279557 ], [ 85.174808323964058, 27.997713094479451 ], [ 85.175415694311411, 27.998828727483534 ], [ 85.175057455533661, 28.000309929243986 ], [ 85.174987947649896, 28.004839134741218 ], [ 85.174851680673626, 28.005610825392722 ], [ 85.173973344993797, 28.008883397655755 ], [ 85.173807915014052, 28.009710815967455 ], [ 85.173675842754818, 28.010704804874099 ], [ 85.17365500035551, 28.012220452792477 ], [ 85.173699968275173, 28.012648453910678 ], [ 85.173999708784592, 28.014028235655019 ], [ 85.174476611557893, 28.015457257912995 ], [ 85.175676488184507, 28.017627367579149 ], [ 85.176331755954124, 28.018200552632194 ], [ 85.175931179164252, 28.020634161820713 ], [ 85.176002027831757, 28.02264215887287 ], [ 85.176314239326587, 28.024409322045223 ], [ 85.176608177091452, 28.025317335705498 ], [ 85.176887760906524, 28.026035991459054 ], [ 85.177713650144057, 28.027844031187623 ], [ 85.178564930250104, 28.02924203900082 ], [ 85.17904490766638, 28.029857061103467 ], [ 85.18101037736507, 28.031625116528563 ], [ 85.183865442029841, 28.033431216840761 ], [ 85.184575179116095, 28.033832727921087 ], [ 85.184678827072304, 28.033884876920883 ], [ 85.184625244975592, 28.034272677519326 ], [ 85.184685227674962, 28.034670741373553 ], [ 85.184538605996181, 28.036295460617477 ], [ 85.184554425351664, 28.036711833046262 ], [ 85.184358099344607, 28.038060955853727 ], [ 85.18437307377485, 28.03839995553874 ], [ 85.18486893352862, 28.040550874336031 ], [ 85.18490927936854, 28.040865725957836 ], [ 85.185381766184804, 28.0418903267419 ], [ 85.185459858576039, 28.04232170041357 ], [ 85.186256901036344, 28.043961156472285 ], [ 85.186762865492028, 28.044725180431318 ], [ 85.187508067159314, 28.045610105191436 ], [ 85.187696709489217, 28.04588759268967 ], [ 85.189544435799192, 28.047769934230605 ], [ 85.192003468974235, 28.049536026636286 ], [ 85.192709359279846, 28.049976018281555 ], [ 85.193643463115734, 28.050860378340047 ], [ 85.194017727819514, 28.051126825926847 ], [ 85.194472767912131, 28.051887185861588 ], [ 85.194745634293128, 28.052230376813146 ], [ 85.195008190468897, 28.052790047845004 ], [ 85.195343954635717, 28.053303624622664 ], [ 85.196789141927866, 28.055662982253047 ], [ 85.198927664751466, 28.057822952885001 ], [ 85.198464544178776, 28.05872389470326 ], [ 85.198284377731682, 28.059818792912242 ], [ 85.198028319884472, 28.060218894961864 ], [ 85.197530437476928, 28.062532161932744 ], [ 85.197594083886457, 28.062935605604025 ], [ 85.197337344233816, 28.06375042434318 ], [ 85.197266612440259, 28.064147824898285 ], [ 85.196901923565946, 28.065033466525396 ], [ 85.196688877100698, 28.065741452279141 ], [ 85.196434447114285, 28.068120008873361 ], [ 85.196503382882824, 28.068972009941398 ], [ 85.196901215842061, 28.070740909412113 ], [ 85.197137174426416, 28.071367920649404 ], [ 85.197872636595108, 28.072473358508056 ], [ 85.198230083307493, 28.07323244507835 ], [ 85.19859861991857, 28.073859513632076 ], [ 85.198700505925842, 28.074364327804361 ], [ 85.199855636619887, 28.076981873148007 ], [ 85.202050406832811, 28.079009658844925 ], [ 85.202534009571252, 28.079309353438777 ], [ 85.203773871298196, 28.080341871924631 ], [ 85.20482586441527, 28.080876758713444 ], [ 85.205994492041015, 28.08206690470433 ], [ 85.208085526573043, 28.083207818079156 ], [ 85.208719320033083, 28.083350592123459 ], [ 85.210093333958213, 28.085395085638705 ], [ 85.212197407012425, 28.08695124655334 ], [ 85.213410395931447, 28.087352353270777 ], [ 85.214612736205225, 28.088229072899562 ], [ 85.21483855022268, 28.088300797182363 ], [ 85.215571880332021, 28.08897894522018 ], [ 85.2175944815598, 28.090003923989254 ], [ 85.219757438001054, 28.090457026946741 ], [ 85.220668817755595, 28.091515189208565 ], [ 85.221376698156348, 28.092022169930932 ], [ 85.221550224226618, 28.092261513061441 ], [ 85.223670763723803, 28.093740496018299 ], [ 85.224076386331191, 28.093936986103117 ], [ 85.224403078517341, 28.094260721539982 ], [ 85.224905088303387, 28.094593739666241 ], [ 85.225225922429019, 28.094734728481953 ], [ 85.225961105319641, 28.09547255727939 ], [ 85.226458112495862, 28.095825575875132 ], [ 85.227303824062247, 28.096309770625677 ], [ 85.227650304285305, 28.096667012780806 ], [ 85.228276090425311, 28.097028676686588 ], [ 85.228639254511293, 28.097418409916802 ], [ 85.23093364368998, 28.098661383082057 ], [ 85.231118652849361, 28.098727387558394 ], [ 85.233084448386577, 28.09918612211214 ], [ 85.235117129126692, 28.099198670357623 ], [ 85.235649093739539, 28.099142640829932 ], [ 85.235832159513677, 28.09914125149465 ], [ 85.236386950787377, 28.099451017378531 ], [ 85.239218139450813, 28.099972578150613 ], [ 85.240257988680412, 28.099996808638597 ], [ 85.241257084752831, 28.100140445568069 ], [ 85.243182212297029, 28.100237457749333 ], [ 85.2449178148741, 28.100160160858934 ], [ 85.245370850110177, 28.100096514582397 ], [ 85.245539009218163, 28.100114447892718 ], [ 85.247312339562768, 28.100090330180205 ], [ 85.248517514959715, 28.100374941094362 ], [ 85.248986982187347, 28.100440983897439 ], [ 85.24967099481222, 28.100795604424135 ], [ 85.249685569172428, 28.10079965567078 ], [ 85.25127100892233, 28.101626249061184 ], [ 85.254088674733225, 28.102528278910459 ], [ 85.25530775185085, 28.102704293885989 ], [ 85.255312030252526, 28.102680993643411 ], [ 85.255846568718226, 28.102770614472171 ], [ 85.256161170137247, 28.103022760962741 ], [ 85.256364195944428, 28.103149365227093 ], [ 85.256488025800181, 28.103434609690581 ], [ 85.257587208875378, 28.104843196346376 ], [ 85.258436194114921, 28.105694233081405 ], [ 85.259421520958085, 28.106353892060518 ], [ 85.259628433460549, 28.106586425999954 ], [ 85.260875422234065, 28.107740478450332 ], [ 85.26208939625738, 28.108662785911758 ], [ 85.263057419701056, 28.10926281957299 ], [ 85.264060362928376, 28.109704930032358 ], [ 85.265247226315537, 28.11134749649894 ], [ 85.266422221262388, 28.112384545027332 ], [ 85.268246743812867, 28.1135836503836 ], [ 85.268994199216834, 28.114498816579271 ], [ 85.269028411885742, 28.114808244919875 ], [ 85.269247361497875, 28.115531255126559 ], [ 85.270904109291124, 28.118331421723035 ], [ 85.271198102852878, 28.118638434621488 ], [ 85.273430126717386, 28.120266516275258 ], [ 85.273797140269934, 28.120448527414432 ], [ 85.275304016581103, 28.120963265209298 ], [ 85.276268729019833, 28.122067146657123 ], [ 85.278511172231703, 28.123371680186992 ], [ 85.278792444258116, 28.123435302500656 ], [ 85.279395471698976, 28.123924116025304 ], [ 85.280986871186428, 28.124573154598313 ], [ 85.281107855517718, 28.124807003666902 ], [ 85.281501837812044, 28.12530402185282 ], [ 85.283725791748495, 28.127205662626483 ], [ 85.284105802704616, 28.127424675293977 ], [ 85.28486093272231, 28.127750609292871 ], [ 85.284989597781291, 28.127902374612948 ], [ 85.285280597508788, 28.128150386466825 ], [ 85.2871030593939, 28.129280963931581 ], [ 85.28814775598957, 28.13028964666626 ], [ 85.290483549375423, 28.131854866672651 ], [ 85.290903865322292, 28.132042497906809 ], [ 85.291536992990899, 28.133077332380822 ], [ 85.291539827225535, 28.133257311481703 ], [ 85.292574377449995, 28.135632419439908 ], [ 85.293155339556762, 28.136480447008839 ], [ 85.294813202689014, 28.138212080094846 ], [ 85.294974633161175, 28.138334854027956 ], [ 85.296211097459434, 28.139838403104722 ], [ 85.296568101782171, 28.140499941065588 ], [ 85.296738366349231, 28.141000653865802 ], [ 85.298200497558994, 28.143453436638712 ], [ 85.300493434342798, 28.145969538884483 ], [ 85.302093976207189, 28.147306832685828 ], [ 85.302753991320387, 28.147724855929866 ], [ 85.303726237034937, 28.148221575113823 ], [ 85.303902675130473, 28.148368334310696 ], [ 85.305825155956541, 28.1494371958423 ], [ 85.305978329711351, 28.149630817051186 ], [ 85.307413117867753, 28.151017406092084 ], [ 85.308126125740614, 28.151547433406378 ], [ 85.309299564328526, 28.152274190076245 ], [ 85.313034423560765, 28.154177842220587 ], [ 85.314159939876703, 28.154888964848382 ], [ 85.316403138043228, 28.156519362306483 ], [ 85.31805711681028, 28.157451208455971 ], [ 85.319780938314295, 28.157966064585967 ], [ 85.319907562752391, 28.158098366331494 ], [ 85.322116543473243, 28.160139459372285 ], [ 85.322669375572204, 28.160604593709472 ], [ 85.323907386256494, 28.161552641828457 ], [ 85.324961273213546, 28.162236958791187 ], [ 85.324976659886545, 28.162245357538961 ], [ 85.325572238577209, 28.162909957597932 ], [ 85.327202717364798, 28.164285969697822 ], [ 85.32838874429595, 28.165040011560215 ], [ 85.328737850166775, 28.165227837853401 ], [ 85.32919689101287, 28.165922645694383 ], [ 85.329396033206891, 28.16613677415091 ], [ 85.329772022512344, 28.16700054714115 ], [ 85.331033439713366, 28.168529564734836 ], [ 85.332170429431443, 28.169583612702237 ], [ 85.333622776301354, 28.170633573786347 ], [ 85.33385050740425, 28.173213062904765 ], [ 85.333819463972389, 28.17562283172968 ], [ 85.333829689605906, 28.17607609347516 ], [ 85.33386941453621, 28.176760435727612 ], [ 85.333295714194236, 28.1772141772264 ], [ 85.332056966734882, 28.179003034241223 ], [ 85.331451205969159, 28.181032009977475 ], [ 85.33139817543514, 28.181447005574256 ], [ 85.331459116552026, 28.18345569234107 ], [ 85.332142566067944, 28.185371683992361 ], [ 85.333395603637115, 28.187046534472056 ], [ 85.333829596245067, 28.187480553300592 ], [ 85.335875469054628, 28.188955972832026 ], [ 85.336314484832343, 28.189178986369935 ], [ 85.33714494681675, 28.189476311729937 ], [ 85.337429079325162, 28.189856418186729 ], [ 85.337510963872305, 28.190107227491321 ], [ 85.337519117294207, 28.190652433252041 ], [ 85.337589094791511, 28.190961436343002 ], [ 85.338704301830617, 28.193417811929063 ], [ 85.340269106213171, 28.194902153247568 ], [ 85.340462856389891, 28.195400850269291 ], [ 85.340804460213249, 28.196093742453122 ], [ 85.341134585908023, 28.197086696462115 ], [ 85.34119172529671, 28.197396915418693 ], [ 85.341617180409884, 28.198799567959284 ], [ 85.342017121443973, 28.199731587508065 ], [ 85.342961582462721, 28.201310290533449 ], [ 85.343793617802362, 28.20212489358445 ], [ 85.343849831166096, 28.203184241176615 ], [ 85.344554210538732, 28.205799070819044 ], [ 85.34520891287913, 28.207092448161024 ], [ 85.344832254586635, 28.207831870019223 ], [ 85.344520077959515, 28.209912318432384 ], [ 85.344896606751533, 28.21198439206157 ], [ 85.345857071927611, 28.213739593341231 ], [ 85.345922308866079, 28.21436540323473 ], [ 85.345918166865587, 28.214443437561904 ], [ 85.345900760790343, 28.214473890093885 ], [ 85.345515226732601, 28.216744280605383 ], [ 85.345518207417967, 28.216998279968703 ], [ 85.34589424823271, 28.219092028953781 ], [ 85.346940748970923, 28.220998732434001 ], [ 85.348567483660815, 28.222553939984497 ], [ 85.348785263655827, 28.222666650191734 ], [ 85.349399171042478, 28.223358300498301 ], [ 85.349700541732631, 28.223636181946471 ], [ 85.349830933412861, 28.22394931947159 ], [ 85.351313353000393, 28.22617380836596 ], [ 85.351456316135611, 28.226275750243069 ], [ 85.351783812518619, 28.226738749393576 ], [ 85.352031923944864, 28.226938211831069 ], [ 85.352030092724888, 28.227434153572062 ], [ 85.352061465982558, 28.22796565124407 ], [ 85.351961504938572, 28.228470449927865 ], [ 85.35188889052327, 28.228768273341174 ], [ 85.35180230362748, 28.228905267709496 ], [ 85.351441832305781, 28.230207146808155 ], [ 85.351339188859001, 28.230334964784472 ], [ 85.350459401107429, 28.231803568087233 ], [ 85.350422226497088, 28.231840838980691 ], [ 85.350120213816254, 28.232243823598363 ], [ 85.348934393200395, 28.2347521526004 ], [ 85.348888379685718, 28.234946149375904 ], [ 85.348902748866593, 28.236012537404452 ], [ 85.348859244956969, 28.236103825921422 ], [ 85.348682251589338, 28.238498814631885 ], [ 85.348922199554437, 28.239270651619574 ], [ 85.348878239504799, 28.239554589398846 ], [ 85.348812425600201, 28.239547882016659 ], [ 85.348579293293483, 28.24134186279796 ], [ 85.348779484319678, 28.243954047399477 ], [ 85.35001860137362, 28.246331209678377 ], [ 85.35183352099213, 28.248607293839338 ], [ 85.353505677230658, 28.250153808250811 ], [ 85.354563349899536, 28.250878111909635 ], [ 85.354227261890486, 28.252295579892447 ], [ 85.354223250355545, 28.252447579174007 ], [ 85.354658937701132, 28.254950386531259 ], [ 85.355611221737561, 28.256473710898529 ], [ 85.355612214729589, 28.256705239140864 ], [ 85.355909513714678, 28.257496380865053 ], [ 85.356015760786178, 28.258142459006756 ], [ 85.356942520467612, 28.260585453375921 ], [ 85.357166502498472, 28.260945464213812 ], [ 85.357486723891185, 28.26128263026348 ], [ 85.357663879198071, 28.261697491213379 ], [ 85.359309501003651, 28.263489171278298 ], [ 85.35980050406323, 28.263876190689047 ], [ 85.360762798609244, 28.264400249118125 ], [ 85.361139464690808, 28.264812899877949 ], [ 85.362436922592067, 28.265599010473434 ], [ 85.363785430032706, 28.266564407833691 ], [ 85.36411061692192, 28.266654122035469 ], [ 85.364254955465611, 28.267033850759475 ], [ 85.365217321053464, 28.268760557704532 ], [ 85.366084277026857, 28.269901598373966 ], [ 85.367827164366616, 28.271455913933494 ], [ 85.367929700834665, 28.272024132310708 ], [ 85.368000370994181, 28.272316975361207 ], [ 85.367975222631216, 28.272370521470474 ], [ 85.367410173296619, 28.274268789142738 ], [ 85.367309119229731, 28.275002780979062 ], [ 85.367406429114496, 28.277286980075758 ], [ 85.367551381994588, 28.277930986527267 ], [ 85.367691765022627, 28.278330862299303 ], [ 85.367483006208786, 28.279084355965992 ], [ 85.367380951691473, 28.279824347724976 ], [ 85.36744313401924, 28.281944763077217 ], [ 85.368198794574013, 28.283957653418671 ], [ 85.369582732382767, 28.285689241667058 ], [ 85.371475490639384, 28.286990028038794 ], [ 85.373713663986095, 28.287747701404097 ], [ 85.376104007650085, 28.287896840719487 ], [ 85.379716251003671, 28.28764983430624 ], [ 85.381893488766167, 28.287230686973871 ], [ 85.383861293685186, 28.286305560986278 ], [ 85.385472773214786, 28.284943516926784 ], [ 85.386227758421938, 28.284102481387617 ], [ 85.387324519453898, 28.282484202346357 ], [ 85.387910001920758, 28.280669594360898 ], [ 85.38794422146654, 28.278782663072938 ], [ 85.387857171096158, 28.278115666112711 ], [ 85.387274888275741, 28.276148802832402 ], [ 85.386946333036306, 28.275662354475187 ], [ 85.387132967202703, 28.275205772433676 ], [ 85.387619282866481, 28.272686794595938 ], [ 85.387605172767508, 28.271242790901919 ], [ 85.387147451747836, 28.26891975851311 ], [ 85.386309071129304, 28.266799558169787 ], [ 85.386428252580046, 28.266409895737493 ], [ 85.38628650439999, 28.264118868522683 ], [ 85.38604043192538, 28.263117879740026 ], [ 85.38495699539358, 28.260783999736248 ], [ 85.38303264522159, 28.258922791517701 ], [ 85.380589006873137, 28.257801315446983 ], [ 85.380122508844082, 28.257052321110269 ], [ 85.379556488318499, 28.256385346985574 ], [ 85.377906392931223, 28.254930903304977 ], [ 85.375859353984211, 28.253948695571754 ], [ 85.375476180299373, 28.253823564364428 ], [ 85.375300722216423, 28.253663489420731 ], [ 85.375226684700706, 28.253055084538495 ], [ 85.375222792817951, 28.25177101735315 ], [ 85.375289700007002, 28.251558605110247 ], [ 85.375263675997488, 28.24952028278765 ], [ 85.374595247440467, 28.247569656075573 ], [ 85.37402836936873, 28.246799969480911 ], [ 85.373770739978681, 28.246266479647851 ], [ 85.373689010667746, 28.246177707874686 ], [ 85.373494579530202, 28.245734424239451 ], [ 85.372760918390114, 28.244455400780339 ], [ 85.3723798964336, 28.2439284188115 ], [ 85.37093541710432, 28.242469566292812 ], [ 85.369784810724283, 28.240650145098193 ], [ 85.367956002112535, 28.239135550027587 ], [ 85.367821863072976, 28.239079108284134 ], [ 85.368130150911355, 28.23743619778234 ], [ 85.368161159494093, 28.237323744151453 ], [ 85.368264812893528, 28.237197724038474 ], [ 85.36943786038654, 28.235152536544771 ], [ 85.369827196217344, 28.232884685242709 ], [ 85.36981812567933, 28.231957682838306 ], [ 85.369747419680806, 28.231435909955511 ], [ 85.369754919544562, 28.231407689643639 ], [ 85.370196526110135, 28.230993753691212 ], [ 85.370576514934029, 28.23053373513148 ], [ 85.371862902629275, 28.228167140761624 ], [ 85.372108175241209, 28.225549579484071 ], [ 85.371279939560125, 28.223027539945715 ], [ 85.371191931199263, 28.222872544235976 ], [ 85.370247917348593, 28.221733115909984 ], [ 85.370224801259567, 28.221344934102508 ], [ 85.370066547393122, 28.220937695750536 ], [ 85.370013160991505, 28.220200560703582 ], [ 85.369119227517288, 28.218154144214601 ], [ 85.367572570148994, 28.216440109006339 ], [ 85.366724674179594, 28.215935734240919 ], [ 85.365683361619659, 28.215007045206903 ], [ 85.36423514679602, 28.214334944549851 ], [ 85.363907057827717, 28.213822701313568 ], [ 85.363877374396068, 28.213366524716449 ], [ 85.364105306356549, 28.211698318618165 ], [ 85.363616956174582, 28.209785507163751 ], [ 85.363742424645523, 28.209270129889074 ], [ 85.363892043202426, 28.20840239925829 ], [ 85.364046931079159, 28.206894385466601 ], [ 85.363863815282315, 28.204586710874409 ], [ 85.363598743958647, 28.203588723099354 ], [ 85.362831801938128, 28.201803948441793 ], [ 85.362323759890302, 28.200972973016949 ], [ 85.362239946339358, 28.200853975707524 ], [ 85.362286506325646, 28.200573804515894 ], [ 85.362284494320505, 28.200415804130905 ], [ 85.361848301015172, 28.198165598364675 ], [ 85.36103939564201, 28.196814422617916 ], [ 85.361021322273388, 28.196749888370661 ], [ 85.360799582591241, 28.195575434998894 ], [ 85.359500095850933, 28.193467748616403 ], [ 85.359160531655206, 28.193194902587152 ], [ 85.358471172803391, 28.19137518729444 ], [ 85.357198636730885, 28.189118866245078 ], [ 85.356518618356475, 28.187496240110029 ], [ 85.355849230781459, 28.18648322952615 ], [ 85.355308018539944, 28.18535284486228 ], [ 85.354841734955812, 28.184529446865483 ], [ 85.354627123759187, 28.184204081543648 ], [ 85.354283005083019, 28.183326025792844 ], [ 85.353125713451462, 28.181387997930496 ], [ 85.352704469950098, 28.18101931020232 ], [ 85.352698137993585, 28.18100198978042 ], [ 85.35202204689034, 28.179521022860875 ], [ 85.35199540745856, 28.179481113817854 ], [ 85.352033952942577, 28.177552038603352 ], [ 85.351970091563388, 28.176513166918298 ], [ 85.351629801669759, 28.174142872498404 ], [ 85.35197606505703, 28.17096124870227 ], [ 85.351985554557999, 28.169668797117538 ], [ 85.351856338508242, 28.168294494463169 ], [ 85.351983679704375, 28.167256502408335 ], [ 85.351820738296354, 28.165696679929205 ], [ 85.351908989446272, 28.165002666172839 ], [ 85.351891315684426, 28.163257202969724 ], [ 85.351785261991296, 28.162539206890255 ], [ 85.350562275936483, 28.159574880618354 ], [ 85.350191254757704, 28.159062898103929 ], [ 85.348531077978848, 28.157402648325185 ], [ 85.34638052324307, 28.156267516180858 ], [ 85.344360454889099, 28.155850852464347 ], [ 85.343704546555458, 28.155299221339057 ], [ 85.343407671852347, 28.154701322359585 ], [ 85.343184661257467, 28.154414332722727 ], [ 85.34108843716281, 28.152558623438253 ], [ 85.340661448079373, 28.152298638137562 ], [ 85.338345014961007, 28.151338091373017 ], [ 85.338050075374269, 28.151047147926704 ], [ 85.335714423478862, 28.149576775651326 ], [ 85.334726978096853, 28.148459144294129 ], [ 85.333862168523638, 28.147624544249275 ], [ 85.333393514071361, 28.147238082931345 ], [ 85.332866304948041, 28.146598633442288 ], [ 85.331671830059861, 28.145439205486078 ], [ 85.330961835067384, 28.144885233315517 ], [ 85.328262052114425, 28.143487360845299 ], [ 85.327078115476951, 28.143121386510909 ], [ 85.326671886681396, 28.143027937770455 ], [ 85.32580259525777, 28.142274347245358 ], [ 85.325474351460187, 28.142091632539596 ], [ 85.324880836606781, 28.141566531001299 ], [ 85.323777507084202, 28.140749310892183 ], [ 85.320439589571478, 28.13869142662449 ], [ 85.319627608687981, 28.138250882317678 ], [ 85.319122899118128, 28.138011806141083 ], [ 85.318992253741257, 28.137831767025613 ], [ 85.317974219221185, 28.136653813096906 ], [ 85.316017306342744, 28.135031765660166 ], [ 85.313908200420769, 28.134193711779652 ], [ 85.313633741552735, 28.133640485446705 ], [ 85.31245280260282, 28.132273144660896 ], [ 85.312101800115954, 28.131954159339113 ], [ 85.311911141432773, 28.131822659203824 ], [ 85.311658258302785, 28.13136779541599 ], [ 85.310877527197093, 28.130573429553447 ], [ 85.310525999285886, 28.129647794493181 ], [ 85.309116851084013, 28.127386177537051 ], [ 85.309029138129588, 28.127319836970948 ], [ 85.308953300919782, 28.127001047466585 ], [ 85.308786278800795, 28.126639055600123 ], [ 85.307403977791054, 28.12464512969736 ], [ 85.307116779599923, 28.124433229383992 ], [ 85.306072379728434, 28.122730780787144 ], [ 85.305784369777086, 28.122395793829341 ], [ 85.303931309428137, 28.12092666016434 ], [ 85.302785169737291, 28.119829676458288 ], [ 85.301293832420029, 28.119038060240058 ], [ 85.300703953825021, 28.118697217315432 ], [ 85.298194732459507, 28.116561886782243 ], [ 85.298189681871619, 28.116566552008386 ], [ 85.296880438058238, 28.115418475460682 ], [ 85.296352450596288, 28.115088493903457 ], [ 85.296024418337311, 28.114928095095525 ], [ 85.295093607648795, 28.114102836488311 ], [ 85.294507816046092, 28.113308420128892 ], [ 85.29235422844954, 28.111837652734877 ], [ 85.291044248616885, 28.111220162986466 ], [ 85.290965217230479, 28.1111726714437 ], [ 85.290565908829961, 28.110585175835023 ], [ 85.290238719047892, 28.11033260894164 ], [ 85.290228370825602, 28.110310597223879 ], [ 85.288750167473594, 28.108244157664156 ], [ 85.287805153411568, 28.107318198253918 ], [ 85.285860868515329, 28.105926598062865 ], [ 85.285615696831528, 28.105498823748519 ], [ 85.284135038748019, 28.104282779074335 ], [ 85.283145933911598, 28.103060795759685 ], [ 85.281036891303543, 28.101705818880436 ], [ 85.28027824037467, 28.10149349119861 ], [ 85.280037360715212, 28.101298422067739 ], [ 85.279166191716513, 28.100864569312904 ], [ 85.279117565080881, 28.10070042576411 ], [ 85.277295694837434, 28.098512057583683 ], [ 85.276656696593307, 28.097989083143748 ], [ 85.275563297324553, 28.097251976747224 ], [ 85.275241922514752, 28.096902421143589 ], [ 85.273398086667569, 28.095428127602577 ], [ 85.272891100967627, 28.095133144590093 ], [ 85.272361311436754, 28.094928854655535 ], [ 85.271684723918582, 28.093439651437148 ], [ 85.270256708234442, 28.091832553027341 ], [ 85.268377648153603, 28.090645285392444 ], [ 85.26708592390591, 28.09024690898374 ], [ 85.26702021500023, 28.090183881904853 ], [ 85.266302224559894, 28.089665908967113 ], [ 85.264476811358776, 28.088671290395247 ], [ 85.262053923501512, 28.087714353352087 ], [ 85.259853497025986, 28.087326745942789 ], [ 85.259241427281808, 28.087033525499763 ], [ 85.25592058671576, 28.085788608655175 ], [ 85.253560903764026, 28.085254701276227 ], [ 85.253464218598097, 28.085259034884388 ], [ 85.252598528967511, 28.084981452461292 ], [ 85.250580654283453, 28.084640480297789 ], [ 85.249248931965013, 28.084514899382096 ], [ 85.247003081824218, 28.084467909245081 ], [ 85.246605514855062, 28.084481766982421 ], [ 85.246527379362831, 28.084461381432423 ], [ 85.243868197844591, 28.084175041724738 ], [ 85.243316251848285, 28.084196819541901 ], [ 85.243141150247794, 28.084180254896321 ], [ 85.241491373127204, 28.083781758849646 ], [ 85.240725680522729, 28.08354647600116 ], [ 85.239786738358646, 28.083378489534105 ], [ 85.238732942681551, 28.083291819341902 ], [ 85.237869169419852, 28.082987862721801 ], [ 85.237458731193342, 28.08286986500211 ], [ 85.23729588668408, 28.082567308986981 ], [ 85.236549335181124, 28.081534423044793 ], [ 85.236485332507655, 28.081374419222229 ], [ 85.23542902864412, 28.079940528099247 ], [ 85.234930016939956, 28.079412550045685 ], [ 85.233695572139439, 28.078356012825946 ], [ 85.232529591378551, 28.077550055830656 ], [ 85.232182581235605, 28.077378607295991 ], [ 85.231732073612363, 28.076979683516228 ], [ 85.231346001003487, 28.076790542833969 ], [ 85.230009228019554, 28.075897564720631 ], [ 85.229687239932986, 28.075738574469344 ], [ 85.227324766148243, 28.074967230786996 ], [ 85.227198184999608, 28.074944769703052 ], [ 85.226467901579767, 28.074354648284903 ], [ 85.224237701008619, 28.073530927679776 ], [ 85.224233098754368, 28.073524430814686 ], [ 85.222502760209522, 28.072165077052158 ], [ 85.222072084303576, 28.071913495599691 ], [ 85.221598560039212, 28.071502210725935 ], [ 85.220495241293591, 28.070782525100036 ], [ 85.220080781982048, 28.07041673805703 ], [ 85.218559920414705, 28.069361134034114 ], [ 85.21718809974584, 28.068623320937284 ], [ 85.216959685318812, 28.068264998334499 ], [ 85.215842235913215, 28.066952898588784 ], [ 85.215597995287041, 28.066614733756612 ], [ 85.215648024572914, 28.065486575628281 ], [ 85.21566334857738, 28.065454177742648 ], [ 85.216058276845374, 28.06439726769926 ], [ 85.21615010481203, 28.064068486766864 ], [ 85.216619376788813, 28.063512520425899 ], [ 85.217441899985701, 28.061278402308428 ], [ 85.217464890467156, 28.061145400535306 ], [ 85.217438543456666, 28.058814222202169 ], [ 85.217412777933319, 28.0587484346953 ], [ 85.217579178033034, 28.058347001840847 ], [ 85.217632163721206, 28.058136998144832 ], [ 85.21771542194378, 28.055360191651538 ], [ 85.217506306469502, 28.054868244349723 ], [ 85.217504516991539, 28.054809897811769 ], [ 85.217284207264257, 28.053906612763516 ], [ 85.217307263356389, 28.053665328045881 ], [ 85.216854654890128, 28.051668836544337 ], [ 85.216545580368205, 28.05114408533586 ], [ 85.216493009603056, 28.050804112769189 ], [ 85.215272744481155, 28.048669671826772 ], [ 85.213333018832131, 28.047006445420546 ], [ 85.213077025275069, 28.046850454229308 ], [ 85.212883476679593, 28.046781883477788 ], [ 85.212689317796816, 28.04658401927631 ], [ 85.211873098066917, 28.045876476180783 ], [ 85.211714059136824, 28.045607352902177 ], [ 85.210991954818169, 28.044950490197984 ], [ 85.210562698295107, 28.0440835994449 ], [ 85.209277566724893, 28.042275200395441 ], [ 85.208958649798106, 28.042031489667675 ], [ 85.208301380416898, 28.041217750748331 ], [ 85.208210181748328, 28.041156003215551 ], [ 85.208036447363966, 28.040659709510606 ], [ 85.20793543779736, 28.040481714364866 ], [ 85.206443271956402, 28.038642918437567 ], [ 85.204382240942024, 28.03730506399193 ], [ 85.203285656660753, 28.036986453222791 ], [ 85.203357257078281, 28.036306892814952 ], [ 85.203309142251115, 28.035516487162319 ], [ 85.203413227863265, 28.034834864059082 ], [ 85.20355886949713, 28.034356168236172 ], [ 85.203666793795321, 28.033327158410948 ], [ 85.203344233252395, 28.030541596363332 ], [ 85.203173640660495, 28.030259677428642 ], [ 85.202937894835387, 28.029358654069039 ], [ 85.202513691453788, 28.028195243741035 ], [ 85.201208525508775, 28.025438306646851 ], [ 85.200036858098215, 28.023698123225525 ], [ 85.199165833877046, 28.022741161865014 ], [ 85.198110381321101, 28.021780065856614 ], [ 85.196374822501625, 28.020468985546994 ], [ 85.196465247734082, 28.020038889462899 ], [ 85.196552129171195, 28.01844887883572 ], [ 85.196506175102527, 28.017257398777033 ], [ 85.196346084850518, 28.016047403891726 ], [ 85.195657344163479, 28.01387263174972 ], [ 85.194244966724327, 28.011993247406519 ], [ 85.19335288173302, 28.01113534777652 ], [ 85.193338199483151, 28.01048660149095 ], [ 85.193474330724683, 28.009516099610455 ], [ 85.193776765852661, 28.008680850100266 ], [ 85.194157182088858, 28.006823075270031 ], [ 85.194058024241357, 28.005759242281599 ], [ 85.194423842517566, 28.004551783273627 ], [ 85.195096848057858, 28.002726780269786 ], [ 85.195483866130246, 28.000021898292083 ], [ 85.19529667019772, 27.997415900082576 ], [ 85.194792479201837, 27.995333762996307 ], [ 85.194298405558939, 27.994167786665262 ], [ 85.193270378338482, 27.992471544235404 ], [ 85.192848564107976, 27.992078515522199 ], [ 85.192703317508531, 27.990979284654422 ], [ 85.192264071321247, 27.989341054828646 ], [ 85.191585468215322, 27.987693653090457 ], [ 85.190619369747722, 27.983934472917309 ], [ 85.19077883649669, 27.983915577983407 ], [ 85.193151380038373, 27.983297805968665 ], [ 85.195205095526134, 27.982075632903104 ], [ 85.195916104332213, 27.981495605123428 ], [ 85.197457515067754, 27.979787547621292 ], [ 85.198351482488889, 27.977747917385951 ], [ 85.198540431278474, 27.9769939041845 ], [ 85.198730231133808, 27.975192971205182 ], [ 85.198701171137571, 27.974394970101834 ], [ 85.19777446469611, 27.97127409410604 ], [ 85.197397431629994, 27.970636112120165 ], [ 85.196047693371995, 27.96897670968967 ], [ 85.195510688832016, 27.968482732114389 ], [ 85.193440161751809, 27.967275360705674 ], [ 85.192461162750178, 27.965954549387927 ], [ 85.191775146054752, 27.965222579496416 ], [ 85.190975420227261, 27.96448307769197 ], [ 85.189727425681582, 27.9634821269544 ], [ 85.186625138587402, 27.961927570960178 ], [ 85.184939616232796, 27.961476129372937 ], [ 85.184795817366862, 27.96140638944183 ], [ 85.184493581506558, 27.961197053487279 ], [ 85.183522912967803, 27.960127516249035 ], [ 85.182531115544251, 27.959212663774544 ], [ 85.182002119510955, 27.958803684309093 ], [ 85.179144294567109, 27.957373393418266 ], [ 85.178770315791567, 27.957266975037474 ], [ 85.177939331376948, 27.956185894375068 ], [ 85.177637096272747, 27.955414262592434 ], [ 85.176243974272623, 27.953708971288741 ], [ 85.175891019383116, 27.953470540406101 ], [ 85.175888855708379, 27.953466978815147 ], [ 85.175651846017232, 27.953176989589917 ], [ 85.174192391615122, 27.951809746725555 ], [ 85.173957312794144, 27.951681631169066 ], [ 85.172305483339201, 27.950532315010527 ], [ 85.172455639286738, 27.949266459330818 ], [ 85.172332741441934, 27.947051812915806 ], [ 85.171886165739522, 27.945990539278313 ], [ 85.171731120378254, 27.94549361990854 ], [ 85.17150265140026, 27.945079112555597 ], [ 85.171458739756005, 27.944974754999365 ], [ 85.17135293148867, 27.944807476464284 ], [ 85.170417103866399, 27.943109576399689 ], [ 85.170381633130916, 27.943067275006989 ], [ 85.170066065521979, 27.942042786985532 ], [ 85.169910790577774, 27.941727456367335 ], [ 85.16961474945424, 27.940780342765514 ], [ 85.169108093361416, 27.939583029406219 ], [ 85.168668600069651, 27.938771250196179 ], [ 85.168367923036982, 27.937734171438812 ], [ 85.167441742717287, 27.935783948260692 ], [ 85.165918533258221, 27.934156102583675 ], [ 85.165391539381176, 27.933736996899611 ], [ 85.165325597282688, 27.933493707395286 ], [ 85.164961110970637, 27.932482541163193 ], [ 85.164664070972123, 27.931828555376558 ], [ 85.163759816909959, 27.930357629479548 ], [ 85.162739537608829, 27.929077766504928 ], [ 85.161799971554743, 27.927018279700938 ], [ 85.160238186439486, 27.925455562284526 ], [ 85.159978651201939, 27.924305650428046 ], [ 85.159965863776918, 27.923354995404136 ], [ 85.159878266212999, 27.922380732412698 ], [ 85.159697186520063, 27.921297739074351 ], [ 85.15882814550659, 27.918959261710487 ], [ 85.157124807941727, 27.917016297215984 ], [ 85.156324810911769, 27.916370328841182 ], [ 85.154975006629698, 27.915676353235408 ], [ 85.154299479213947, 27.915155665487127 ], [ 85.152478774288952, 27.914095240953404 ], [ 85.151592097096284, 27.913841505357745 ], [ 85.150386242540677, 27.913131768327833 ], [ 85.148355648482365, 27.912334857701559 ], [ 85.148969947400673, 27.911071181322431 ], [ 85.150080725417382, 27.907598108126876 ], [ 85.150285313910345, 27.904469791241905 ], [ 85.149699078900113, 27.901257813749229 ], [ 85.148891004456303, 27.89908890429421 ], [ 85.147360558580417, 27.897252937020554 ], [ 85.146944010802443, 27.89689087687276 ], [ 85.14705331241035, 27.89662545911046 ], [ 85.147240273394786, 27.896020446685089 ], [ 85.147530205271181, 27.894108761599728 ], [ 85.147530152732557, 27.893405759064361 ], [ 85.147188636926813, 27.89133527978591 ], [ 85.146941587449874, 27.890602291229769 ], [ 85.146645590355845, 27.889957567706375 ], [ 85.14658805641352, 27.88908165063755 ], [ 85.146402266971592, 27.887911965803937 ], [ 85.146278232346376, 27.88742397120139 ], [ 85.145335073100142, 27.885322496060216 ], [ 85.143706217703027, 27.88358359853693 ], [ 85.139940306580243, 27.880652652090504 ], [ 85.138696520452072, 27.879286938508361 ], [ 85.138032816287307, 27.878642216277768 ], [ 85.137017466700797, 27.877768500467159 ], [ 85.136417793275058, 27.876541798839291 ], [ 85.136342543082947, 27.875486660163808 ], [ 85.135855906127318, 27.873442731334549 ], [ 85.134731037367985, 27.871608220675483 ], [ 85.13361899664298, 27.870292270648008 ], [ 85.1311099707289, 27.868337317564706 ], [ 85.129703679488969, 27.867633343335182 ], [ 85.127343696743495, 27.866246970628758 ], [ 85.126356141663237, 27.865751170983309 ], [ 85.124322901418495, 27.864890832614833 ], [ 85.124212787412176, 27.864802212757841 ], [ 85.122194265902209, 27.863610970710681 ], [ 85.122006874221199, 27.863533279664193 ], [ 85.120560287818222, 27.861030709946053 ], [ 85.12068466990587, 27.860825433836794 ], [ 85.121029615436512, 27.859917412073663 ], [ 85.121456308184207, 27.85763966345592 ], [ 85.121051960819372, 27.855358697671225 ], [ 85.119857993013042, 27.853307887594966 ], [ 85.117996597111784, 27.851697045543709 ], [ 85.117460609649896, 27.851363064128627 ], [ 85.114041052415047, 27.850140130170384 ], [ 85.113794067929362, 27.850106133141065 ], [ 85.111369717940576, 27.850097848429208 ], [ 85.109050607176215, 27.85072590878163 ], [ 85.108768679529405, 27.850845584304704 ], [ 85.108510878023594, 27.850849895151136 ], [ 85.107517451780865, 27.851010680157053 ], [ 85.106853087088254, 27.850895251307684 ], [ 85.103644289846443, 27.850483288119975 ], [ 85.101500801483482, 27.850462101023183 ], [ 85.098923970838825, 27.850741091210118 ], [ 85.097732722055653, 27.850951357384353 ], [ 85.095970411676305, 27.851386321023142 ], [ 85.095431202074423, 27.850807790295292 ], [ 85.093782203044043, 27.849430856289892 ], [ 85.0925474163611, 27.848582614913735 ], [ 85.091437449565149, 27.847961651101098 ], [ 85.089590612871575, 27.84719682973811 ], [ 85.087587751323753, 27.846864614832381 ], [ 85.086420827759653, 27.84680362264691 ], [ 85.083847765890766, 27.847035765097829 ], [ 85.083326976587884, 27.84724301610493 ], [ 85.081398171322959, 27.845914137390832 ], [ 85.080241216570386, 27.845375171026522 ], [ 85.078453937234684, 27.84476867076911 ], [ 85.076556646067047, 27.844550601954403 ], [ 85.075703702519945, 27.844542605312487 ], [ 85.073743438096074, 27.84473712922194 ], [ 85.072083541984867, 27.845087112063325 ], [ 85.070966149386066, 27.845399884372842 ], [ 85.068945040411435, 27.846111708330245 ], [ 85.066730364999614, 27.846739499075316 ], [ 85.065903321835691, 27.84701889146092 ], [ 85.061357642966499, 27.848811984704426 ], [ 85.061171925460584, 27.84863230861944 ], [ 85.059622264191631, 27.84746643052198 ], [ 85.057795725243182, 27.846678595490054 ], [ 85.054622893892784, 27.845723663493011 ], [ 85.053342668025138, 27.845438950544459 ], [ 85.052484633306349, 27.845312866870415 ], [ 85.049751937612712, 27.844403024486539 ], [ 85.047122935731565, 27.843946946312826 ], [ 85.044176130209522, 27.843875960890106 ], [ 85.041538118085214, 27.844200654473077 ], [ 85.039160082904715, 27.845266402121595 ], [ 85.038614872421419, 27.845621004839508 ], [ 85.038561883696218, 27.8456269998666 ], [ 85.03852223706393, 27.84557189590058 ], [ 85.037130210040942, 27.844153955792734 ], [ 85.035625611065285, 27.842959925542548 ], [ 85.034263643998727, 27.842123972445023 ], [ 85.032921456339693, 27.841457354540179 ], [ 85.03215613799496, 27.841157840910753 ], [ 85.031610231418668, 27.840846716780327 ], [ 85.031796558930196, 27.839620479076697 ], [ 85.031859511089294, 27.839014600011467 ], [ 85.031989340655173, 27.836705583661647 ], [ 85.031996387929468, 27.836146548512545 ], [ 85.031938247780175, 27.834269544689246 ], [ 85.031756939821307, 27.832938667259125 ], [ 85.031480859199746, 27.831806678863213 ], [ 85.030735909242878, 27.829982862745393 ], [ 85.030133252836748, 27.828961525122207 ], [ 85.030107484909408, 27.828779394443927 ], [ 85.02982014833978, 27.827581332376695 ], [ 85.029617108422755, 27.826987341661741 ], [ 85.028980290473484, 27.825635808168219 ], [ 85.028114219465451, 27.824220848923215 ], [ 85.027755258976114, 27.823689977988369 ], [ 85.027325673358888, 27.823112317504776 ], [ 85.027247136600636, 27.822740373166628 ], [ 85.02710745699585, 27.822195926417137 ], [ 85.026798815122987, 27.821176503251149 ], [ 85.026779268724425, 27.820946463080702 ], [ 85.026465078563405, 27.819431322281719 ], [ 85.026293043861727, 27.818917330114036 ], [ 85.025611139929566, 27.817474658776888 ], [ 85.0255340006171, 27.817351014614424 ], [ 85.024897271250694, 27.815914950483023 ], [ 85.023767225434483, 27.814497817630883 ], [ 85.023159142296308, 27.813902533104578 ], [ 85.02342279715505, 27.813593327305941 ], [ 85.024255132756082, 27.81150369926851 ], [ 85.024335044327174, 27.809288028431791 ], [ 85.024291020783494, 27.808969029762775 ], [ 85.023019805922971, 27.805886776291882 ], [ 85.022816794879844, 27.805611785623661 ], [ 85.022436221655482, 27.805237067789186 ], [ 85.02224943875099, 27.804667427884176 ], [ 85.021688392854102, 27.803751454256247 ], [ 85.020479135409929, 27.802264693203711 ], [ 85.018887433274315, 27.801097053125538 ], [ 85.017704468312402, 27.80043409174775 ], [ 85.016287358654452, 27.799802556739191 ], [ 85.014787590332901, 27.799290187495181 ], [ 85.013099767369098, 27.798510400355834 ], [ 85.011422602742314, 27.797934979297096 ], [ 85.010357524667072, 27.797685780760656 ], [ 85.009248511839189, 27.796556023178635 ], [ 85.006292424407164, 27.794653590165936 ], [ 85.00413152601476, 27.793841644544308 ], [ 85.001573408535549, 27.793292244362583 ], [ 84.998952093165471, 27.793499465757137 ], [ 84.996921218603191, 27.79396344283807 ], [ 84.99509665858325, 27.794597263172054 ], [ 84.993842325782822, 27.795197034165302 ], [ 84.992609560399018, 27.794993902802339 ], [ 84.990479687718008, 27.795147250729478 ], [ 84.989209768081295, 27.795391239303299 ], [ 84.986982159209063, 27.796136658417254 ], [ 84.986932188650599, 27.796170733173337 ], [ 84.986201581745249, 27.795750386046578 ], [ 84.984035839749708, 27.794873729371744 ], [ 84.982442099739743, 27.79468416692589 ], [ 84.980915676444141, 27.794076528084641 ], [ 84.97834435481289, 27.793476981832566 ], [ 84.976771456380973, 27.79334799563614 ], [ 84.973797586653291, 27.793594832853678 ], [ 84.970953758926484, 27.79431679642558 ], [ 84.970071807796018, 27.794590386341849 ], [ 84.969011864614188, 27.794981365655193 ], [ 84.967213029489287, 27.795900054429779 ], [ 84.965734738678989, 27.79719417639809 ], [ 84.96503972525349, 27.797982143766522 ], [ 84.963579617987875, 27.800589916936882 ], [ 84.963340566116756, 27.801392900692136 ], [ 84.963331788886137, 27.801466803147175 ], [ 84.962367371121516, 27.8025792394942 ], [ 84.961786122961485, 27.803851531487513 ], [ 84.960869558092554, 27.804276669095373 ], [ 84.9599325845262, 27.804898637777654 ], [ 84.958665715504722, 27.80594365749058 ], [ 84.958247712197988, 27.806370638906085 ], [ 84.956965055574358, 27.808153289467718 ], [ 84.956838365813681, 27.808552648602106 ], [ 84.95563411781329, 27.808114746322506 ], [ 84.953436519537092, 27.807619688124959 ], [ 84.952184321726264, 27.807655365327395 ], [ 84.951743234078492, 27.807163934238186 ], [ 84.951251233415732, 27.806745954050051 ], [ 84.950705775788066, 27.806423155268181 ], [ 84.949904474874131, 27.804855570806616 ], [ 84.948707010066144, 27.803294530641931 ], [ 84.947904093363434, 27.801993167513469 ], [ 84.947162885387655, 27.8009972022132 ], [ 84.946150853737819, 27.799855246918874 ], [ 84.943778815035614, 27.798043745438388 ], [ 84.940812829301905, 27.797163861798538 ], [ 84.939835891327277, 27.797051872432935 ], [ 84.938715356223099, 27.797096143974152 ], [ 84.938555545471516, 27.796993755114634 ], [ 84.937004120201934, 27.795752996603881 ], [ 84.936034941196027, 27.795245400243889 ], [ 84.936015975554795, 27.795226637052441 ], [ 84.934786156523515, 27.794235626418416 ], [ 84.932641198855649, 27.792833702867924 ], [ 84.931410021184618, 27.792169917531087 ], [ 84.928830128294848, 27.791043989689484 ], [ 84.927812487401511, 27.790673628454762 ], [ 84.926688547297104, 27.790341652386651 ], [ 84.925190322597572, 27.790035526260535 ], [ 84.923927402626134, 27.789887540238741 ], [ 84.922004887263796, 27.789866510726451 ], [ 84.920130740291413, 27.790248200154178 ], [ 84.917605884220791, 27.791052158296225 ], [ 84.914904874967178, 27.792488418146355 ], [ 84.913135852881581, 27.793907598769415 ], [ 84.91310390410321, 27.79392653596198 ], [ 84.911674279612726, 27.794550107599932 ], [ 84.909590340806048, 27.795911038913093 ], [ 84.909198147338216, 27.79623803832127 ], [ 84.908538961675347, 27.796130815294536 ], [ 84.90685607305231, 27.796137820929218 ], [ 84.90455036941205, 27.796445149527159 ], [ 84.902437987727282, 27.797322602006766 ], [ 84.900873365951057, 27.798555783278488 ], [ 84.897401648730039, 27.798874940410357 ], [ 84.892043592130278, 27.800457769197475 ], [ 84.889837850410885, 27.800700547116868 ], [ 84.888980902737913, 27.80091153664485 ], [ 84.888217207621906, 27.80127917541213 ], [ 84.887057839890446, 27.80081075669473 ], [ 84.886544870264643, 27.80070576509555 ], [ 84.884583586696849, 27.800522907239362 ], [ 84.882630591855786, 27.800765987321967 ], [ 84.880971167059684, 27.801159834738232 ], [ 84.880205889545195, 27.799930631011073 ], [ 84.8793148578699, 27.798890670655144 ], [ 84.877577572850811, 27.797392348127609 ], [ 84.875865609695666, 27.796304408321518 ], [ 84.874748800898729, 27.79570884035736 ], [ 84.87365684572876, 27.795227871163764 ], [ 84.87240995549439, 27.79478860388085 ], [ 84.87116802388401, 27.794453628746698 ], [ 84.868550454691444, 27.79414662788141 ], [ 84.868148414416922, 27.794158154071479 ], [ 84.866789446302462, 27.793941337866666 ], [ 84.864487228126535, 27.79386935738113 ], [ 84.862254981494999, 27.794375430569481 ], [ 84.860816058988902, 27.794904402787008 ], [ 84.858699914632012, 27.796045304220758 ], [ 84.857068652891584, 27.797700196772666 ], [ 84.856006084945335, 27.799185154277406 ], [ 84.855856667038381, 27.799343692207948 ], [ 84.855557427958274, 27.799839140634251 ], [ 84.854677752895142, 27.799977698495685 ], [ 84.854341872821649, 27.79961788490025 ], [ 84.85327797691393, 27.798672220984137 ], [ 84.852031990058606, 27.797753268200179 ], [ 84.851041836755925, 27.797127946475488 ], [ 84.848272924577259, 27.795643034969125 ], [ 84.84617310106762, 27.794849845934756 ], [ 84.844803179425782, 27.79452487098337 ], [ 84.843306973346301, 27.794300457968482 ], [ 84.840436159920344, 27.794112480819301 ], [ 84.836913114356307, 27.79457859941331 ], [ 84.836084160368415, 27.794863584549166 ], [ 84.834030461445039, 27.795923434802603 ], [ 84.832216802816092, 27.795694775728524 ], [ 84.829628646666194, 27.796125475794348 ], [ 84.827331673830514, 27.797270230079789 ], [ 84.825752711750283, 27.798391174660928 ], [ 84.82417820100062, 27.799878850108289 ], [ 84.824045200434867, 27.800111039868966 ], [ 84.822980934271754, 27.799800210056876 ], [ 84.819404159634985, 27.799350252184109 ], [ 84.816742978127493, 27.799407438466911 ], [ 84.814245685208363, 27.800227085539532 ], [ 84.812180830994706, 27.801721050240143 ], [ 84.810605821453052, 27.803307980664364 ], [ 84.808980531409375, 27.805830028690195 ], [ 84.808670915454201, 27.806667471501004 ], [ 84.808382547751833, 27.807112827413611 ], [ 84.807859681531127, 27.807595781613948 ], [ 84.807434977929191, 27.807871378359874 ], [ 84.806084020229491, 27.80729074976389 ], [ 84.802986197114578, 27.807110224674737 ], [ 84.802800228553963, 27.807131330965792 ], [ 84.80122399097354, 27.806902450202614 ], [ 84.798777407325332, 27.806018330330634 ], [ 84.797523366831101, 27.805667327071639 ], [ 84.793044632290645, 27.804760400528878 ], [ 84.790732087588438, 27.804594436351085 ], [ 84.788461196063921, 27.80501692608923 ], [ 84.786417443121749, 27.805993359064562 ], [ 84.786374107347726, 27.806021836158482 ], [ 84.786371147165411, 27.806021122038224 ], [ 84.784900531214205, 27.805881282297936 ], [ 84.784814462998767, 27.805839436444995 ], [ 84.783800409345403, 27.804798181890565 ], [ 84.783106213967059, 27.804167732978009 ], [ 84.78146221925094, 27.802846797739285 ], [ 84.77936959190454, 27.801627435135657 ], [ 84.77695879013821, 27.801032669866789 ], [ 84.774225964567435, 27.800749698497047 ], [ 84.770676571894455, 27.801084684938999 ], [ 84.767974729176714, 27.801900643292484 ], [ 84.766215891922897, 27.802652038686162 ], [ 84.764709513682718, 27.803754962304676 ], [ 84.763573135552846, 27.804814975812 ], [ 84.761535847972411, 27.802305052213853 ], [ 84.760982422674033, 27.8016958142417 ], [ 84.759451397141888, 27.800185879245344 ], [ 84.757498144090022, 27.798776923656057 ], [ 84.757007440501212, 27.798523610331326 ], [ 84.756652406422745, 27.797501541404458 ], [ 84.755347557939018, 27.795767387209981 ], [ 84.753539451114705, 27.794437606807421 ], [ 84.751379190189766, 27.79362331736424 ], [ 84.746303481488425, 27.792442409650466 ], [ 84.743849740966283, 27.792216089077783 ], [ 84.742613035791607, 27.792441066719341 ], [ 84.741324804553713, 27.79136386532851 ], [ 84.739656542974032, 27.790288174067626 ], [ 84.736849645380687, 27.788924258835085 ], [ 84.733277221905325, 27.788045974816107 ], [ 84.73019342429069, 27.787937993922277 ], [ 84.727897251272793, 27.788149766801769 ], [ 84.725760993580494, 27.788927902391933 ], [ 84.723957471737137, 27.790209450096263 ], [ 84.721519472658159, 27.792518346209981 ], [ 84.720732064639535, 27.7933906508731 ], [ 84.720702457484109, 27.793429231797568 ], [ 84.71878179340068, 27.793953768831663 ], [ 84.717960187973418, 27.793514051753128 ], [ 84.716081582992459, 27.792778070979512 ], [ 84.714055440889538, 27.792484779397512 ], [ 84.710674663061994, 27.792380799527514 ], [ 84.707930090500454, 27.792717114313618 ], [ 84.705472595655721, 27.793854758619773 ], [ 84.702586674803314, 27.795811660993788 ], [ 84.700333234403033, 27.798176692108409 ], [ 84.69987834621314, 27.798941488645902 ], [ 84.699347257651169, 27.799269585698479 ], [ 84.69886417557889, 27.798983825427161 ], [ 84.696537638990151, 27.798373191065686 ], [ 84.694112095061627, 27.798401184595296 ], [ 84.692833178158025, 27.798588177462385 ], [ 84.690458186694215, 27.799282380559131 ], [ 84.688433411075863, 27.80058639093313 ], [ 84.687117255320516, 27.802175680789691 ], [ 84.685506151487289, 27.802290759591823 ], [ 84.684606317668155, 27.802400357218986 ], [ 84.682241469533267, 27.802809339985259 ], [ 84.680350364594219, 27.803357108482107 ], [ 84.67866582281404, 27.8042973704571 ], [ 84.674730880935044, 27.807146292583152 ], [ 84.67385401796902, 27.807603643900986 ], [ 84.673002325239949, 27.808114914420276 ], [ 84.672154466105326, 27.808696599871674 ], [ 84.671664210464513, 27.808843649678874 ], [ 84.670141448944875, 27.808364478377513 ], [ 84.667726085719224, 27.808275907743393 ], [ 84.665388494809307, 27.808823728704198 ], [ 84.663335984337579, 27.809959356021846 ], [ 84.661750592061495, 27.811582074151481 ], [ 84.661069325223409, 27.812952002427146 ], [ 84.659906352531763, 27.814154794285251 ], [ 84.658987828175626, 27.81585289665955 ], [ 84.658560758909033, 27.817008868670815 ], [ 84.658207775911691, 27.819585883594286 ], [ 84.658049026199976, 27.819762158898421 ], [ 84.657128066250081, 27.82115520112453 ], [ 84.656365642829513, 27.821709013126483 ], [ 84.654687397154646, 27.823375685022075 ], [ 84.653133331531691, 27.825509604586497 ], [ 84.652031217551112, 27.827833804890108 ], [ 84.651895983192503, 27.830353222819515 ], [ 84.652129863630535, 27.831969229100597 ], [ 84.652570432782866, 27.83355860195319 ], [ 84.653270325766087, 27.835235633862546 ], [ 84.653882548976142, 27.836381881086222 ], [ 84.654629453094756, 27.837511675956254 ], [ 84.654912316299843, 27.838126670638271 ], [ 84.654919245108886, 27.838244043721193 ], [ 84.654294491900259, 27.83905802617922 ], [ 84.653589904063836, 27.840883108244405 ], [ 84.653081749263137, 27.843152069579254 ], [ 84.652936290318266, 27.844188923206239 ], [ 84.652900193950146, 27.844810058415106 ], [ 84.652728062700717, 27.844837304944107 ], [ 84.649634890332123, 27.844882761610759 ], [ 84.64715916609515, 27.84526474281293 ], [ 84.644726308378893, 27.845998705691681 ], [ 84.642099538774744, 27.847317096614915 ], [ 84.6411715577986, 27.848013062691972 ], [ 84.639327640966215, 27.849995706661371 ], [ 84.63847524224154, 27.852190011252901 ], [ 84.634313246109471, 27.85254971336704 ], [ 84.631421992706052, 27.853298163650617 ], [ 84.629036380115053, 27.854931588286711 ], [ 84.626730369587037, 27.857231486646867 ], [ 84.625493843974752, 27.858870000362419 ], [ 84.624802741197115, 27.860744891495386 ], [ 84.624501639177353, 27.862219867815554 ], [ 84.62437873819681, 27.863819201293037 ], [ 84.62439362111823, 27.864125895381861 ], [ 84.622994322945004, 27.864957564894063 ], [ 84.620809344825233, 27.866824477380327 ], [ 84.620256528588527, 27.86752759020932 ], [ 84.620130538979012, 27.867398588955346 ], [ 84.618812558320542, 27.86648363777395 ], [ 84.616840801543148, 27.865474288815122 ], [ 84.614370920507568, 27.864592350250412 ], [ 84.612195992801162, 27.864111871671966 ], [ 84.608308242654516, 27.863746911191718 ], [ 84.605411727060854, 27.863939142029555 ], [ 84.603251861438466, 27.864438118513544 ], [ 84.600759416979272, 27.865436440624769 ], [ 84.599798450895477, 27.86601141123997 ], [ 84.597863303492304, 27.867636901431883 ], [ 84.597452645378851, 27.868330761724028 ], [ 84.596614424703233, 27.868265563607252 ], [ 84.594713275068315, 27.86852091563599 ], [ 84.592890387380351, 27.868966894261145 ], [ 84.590222004209721, 27.87011914862374 ], [ 84.589903719614767, 27.8703279837408 ], [ 84.589380245885465, 27.869963475433682 ], [ 84.585884643733991, 27.867847360830684 ], [ 84.58589356750727, 27.867815202806966 ], [ 84.586021464433543, 27.864912442709084 ], [ 84.58566132210278, 27.862972454600072 ], [ 84.584783902548523, 27.860700870079057 ], [ 84.583116383770914, 27.858810945339638 ], [ 84.580588388919409, 27.856765045565744 ], [ 84.579341705214176, 27.855935574306709 ], [ 84.575907810918878, 27.854078685742738 ], [ 84.57535273723083, 27.853804356322772 ], [ 84.571049908319651, 27.851869481158861 ], [ 84.568256590744028, 27.851133914318353 ], [ 84.566236697346014, 27.850939853741174 ], [ 84.566638317690845, 27.849702184941908 ], [ 84.56695342508965, 27.847509615379174 ], [ 84.566507150068688, 27.84533511388647 ], [ 84.565341399212969, 27.843382660661455 ], [ 84.563565556140688, 27.841835395825736 ], [ 84.561346210434181, 27.840838444841843 ], [ 84.55889152946736, 27.84048531180591 ], [ 84.556431739467584, 27.84080911441232 ], [ 84.554197543642559, 27.841779480494729 ], [ 84.553003583585507, 27.842518443005613 ], [ 84.551378128413504, 27.843850452201071 ], [ 84.550217145132621, 27.845522835243475 ], [ 84.549461068296324, 27.847042789764291 ], [ 84.549172220996738, 27.847711314109141 ], [ 84.548697143899517, 27.848998282701178 ], [ 84.548292868445046, 27.851319923816806 ], [ 84.548319689178442, 27.853719913961335 ], [ 84.548508166885142, 27.855195765825883 ], [ 84.548716850911148, 27.856040594374658 ], [ 84.54880095650249, 27.856688552470981 ] ] ] ] } }
]
}
