{
"type": "FeatureCollection",
"name": "settlements",
"crs": { "type": "name", "properties": { "name": "urn:ogc:def:crs:OGC:1.3:CRS84" } },
"features": [
{ "type": "Feature", "properties": { "fid": 1, "cluster": 2, "n_buildings": 391, "n_destroyed": 289, "frac_destroyed": 0.74, "est_population": 492, "destroyed": true, "settlement_id": "AOI01-S01", "access_status": "destroyed", "route_note": "Settlement within/majority-within mapped hazard extent", "route_length_m": null, "place_name": "Shyaphru", "name_match_dist_m": 165.0, "municipality": "Gosaikunda", "res_match_dist_m": 8, "aoi": "AOI01", "aoi_name": "Syapru Besi" }, "geometry": { "type": "Point", "coordinates": [ 85.338936864108447, 28.16368559867432 ] } },
{ "type": "Feature", "properties": { "fid": 2, "cluster": 3, "n_buildings": 28, "n_destroyed": 28, "frac_destroyed": 1.0, "est_population": 35, "destroyed": true, "settlement_id": "AOI01-S02", "access_status": "destroyed", "route_note": "Settlement within/majority-within mapped hazard extent", "route_length_m": null, "place_name": null, "name_match_dist_m": null, "municipality": "Aamachhodingmo", "res_match_dist_m": 204, "aoi": "AOI01", "aoi_name": "Syapru Besi" }, "geometry": { "type": "Point", "coordinates": [ 85.342058278331663, 28.181672321205621 ] } },
{ "type": "Feature", "properties": { "fid": 3, "cluster": 4, "n_buildings": 8, "n_destroyed": 2, "frac_destroyed": 0.25, "est_population": 10, "destroyed": false, "settlement_id": "AOI01-S03", "access_status": "cut_off", "route_note": "No mapped road/track within 250 m of settlement", "route_length_m": null, "place_name": "Shyaphru Bensi", "name_match_dist_m": 438.0, "municipality": "Gosaikunda", "res_match_dist_m": 36, "aoi": "AOI01", "aoi_name": "Syapru Besi" }, "geometry": { "type": "Point", "coordinates": [ 85.343692567149816, 28.168426732672305 ] } },
{ "type": "Feature", "properties": { "fid": 4, "cluster": 6, "n_buildings": 2, "n_destroyed": 2, "frac_destroyed": 1.0, "est_population": 3, "destroyed": true, "settlement_id": "AOI01-S04", "access_status": "destroyed", "route_note": "Settlement within/majority-within mapped hazard extent", "route_length_m": null, "place_name": null, "name_match_dist_m": null, "municipality": "Aamachhodingmo", "res_match_dist_m": 803, "aoi": "AOI01", "aoi_name": "Syapru Besi" }, "geometry": { "type": "Point", "coordinates": [ 85.346369385037093, 28.187451055046097 ] } },
{ "type": "Feature", "properties": { "fid": 5, "cluster": 1, "n_buildings": 1, "n_destroyed": 1, "frac_destroyed": 1.0, "est_population": 1, "destroyed": true, "settlement_id": "AOI01-S05", "access_status": "destroyed", "route_note": "Settlement within/majority-within mapped hazard extent", "route_length_m": null, "place_name": null, "name_match_dist_m": null, "municipality": "Gosaikunda", "res_match_dist_m": 311, "aoi": "AOI01", "aoi_name": "Syapru Besi" }, "geometry": { "type": "Point", "coordinates": [ 85.33217269, 28.15745398 ] } },
{ "type": "Feature", "properties": { "fid": 6, "cluster": 0, "n_buildings": 1, "n_destroyed": 1, "frac_destroyed": 1.0, "est_population": 1, "destroyed": true, "settlement_id": "AOI01-S06", "access_status": "destroyed", "route_note": "Settlement within/majority-within mapped hazard extent", "route_length_m": null, "place_name": null, "name_match_dist_m": null, "municipality": "Gosaikunda", "res_match_dist_m": 473, "aoi": "AOI01", "aoi_name": "Syapru Besi" }, "geometry": { "type": "Point", "coordinates": [ 85.331513670000021, 28.15607904 ] } },
{ "type": "Feature", "properties": { "fid": 7, "cluster": 3, "n_buildings": 271, "n_destroyed": 212, "frac_destroyed": 0.78, "est_population": 224, "destroyed": true, "settlement_id": "AOI02-S01", "access_status": "destroyed", "route_note": "Settlement within/majority-within mapped hazard extent", "route_length_m": null, "place_name": null, "name_match_dist_m": null, "municipality": "Gosaikunda", "res_match_dist_m": 0, "aoi": "AOI02", "aoi_name": "Timure" }, "geometry": { "type": "Point", "coordinates": [ 85.366549534612105, 28.253851234934981 ] } },
{ "type": "Feature", "properties": { "fid": 8, "cluster": 6, "n_buildings": 80, "n_destroyed": 80, "frac_destroyed": 1.0, "est_population": 66, "destroyed": true, "settlement_id": "AOI02-S02", "access_status": "destroyed", "route_note": "Settlement within/majority-within mapped hazard extent", "route_length_m": null, "place_name": null, "name_match_dist_m": null, "municipality": "Gosaikunda", "res_match_dist_m": 0, "aoi": "AOI02", "aoi_name": "Timure" }, "geometry": { "type": "Point", "coordinates": [ 85.374995406353889, 28.264668192793177 ] } },
{ "type": "Feature", "properties": { "fid": 9, "cluster": 7, "n_buildings": 41, "n_destroyed": 41, "frac_destroyed": 1.0, "est_population": 34, "destroyed": true, "settlement_id": "AOI02-S03", "access_status": "destroyed", "route_note": "Settlement within/majority-within mapped hazard extent", "route_length_m": null, "place_name": null, "name_match_dist_m": null, "municipality": "Gosaikunda", "res_match_dist_m": 32, "aoi": "AOI02", "aoi_name": "Timure" }, "geometry": { "type": "Point", "coordinates": [ 85.377353200581311, 28.270457675296651 ] } },
{ "type": "Feature", "properties": { "fid": 10, "cluster": 10, "n_buildings": 12, "n_destroyed": 12, "frac_destroyed": 1.0, "est_population": 10, "destroyed": true, "settlement_id": "AOI02-S04", "access_status": "destroyed", "route_note": "Settlement within/majority-within mapped hazard extent", "route_length_m": null, "place_name": "Rasuwa Gadhi", "name_match_dist_m": 11.0, "municipality": "Gosaikunda", "res_match_dist_m": 838, "aoi": "AOI02", "aoi_name": "Timure" }, "geometry": { "type": "Point", "coordinates": [ 85.377797260579754, 28.277874022027056 ] } },
{ "type": "Feature", "properties": { "fid": 11, "cluster": 0, "n_buildings": 6, "n_destroyed": 6, "frac_destroyed": 1.0, "est_population": 5, "destroyed": true, "settlement_id": "AOI02-S05", "access_status": "destroyed", "route_note": "Settlement within/majority-within mapped hazard extent", "route_length_m": null, "place_name": null, "name_match_dist_m": null, "municipality": "Gosaikunda", "res_match_dist_m": 975, "aoi": "AOI02", "aoi_name": "Timure" }, "geometry": { "type": "Point", "coordinates": [ 85.358816374806949, 28.242972565069056 ] } },
{ "type": "Feature", "properties": { "fid": 12, "cluster": 1, "n_buildings": 5, "n_destroyed": 5, "frac_destroyed": 1.0, "est_population": 4, "destroyed": true, "settlement_id": "AOI02-S06", "access_status": "destroyed", "route_note": "Settlement within/majority-within mapped hazard extent", "route_length_m": null, "place_name": null, "name_match_dist_m": null, "municipality": "Gosaikunda", "res_match_dist_m": 690, "aoi": "AOI02", "aoi_name": "Timure" }, "geometry": { "type": "Point", "coordinates": [ 85.362064141621971, 28.246003844152849 ] } },
{ "type": "Feature", "properties": { "fid": 13, "cluster": 8, "n_buildings": 4, "n_destroyed": 4, "frac_destroyed": 1.0, "est_population": 3, "destroyed": true, "settlement_id": "AOI02-S07", "access_status": "destroyed", "route_note": "Settlement within/majority-within mapped hazard extent", "route_length_m": null, "place_name": null, "name_match_dist_m": null, "municipality": "Gosaikunda", "res_match_dist_m": 137, "aoi": "AOI02", "aoi_name": "Timure" }, "geometry": { "type": "Point", "coordinates": [ 85.377294239409963, 28.268251332813296 ] } },
{ "type": "Feature", "properties": { "fid": 14, "cluster": 9, "n_buildings": 4, "n_destroyed": 4, "frac_destroyed": 1.0, "est_population": 3, "destroyed": true, "settlement_id": "AOI02-S08", "access_status": "destroyed", "route_note": "Settlement within/majority-within mapped hazard extent", "route_length_m": null, "place_name": "Rasuwa Gadhi", "name_match_dist_m": 504.0, "municipality": "Gosaikunda", "res_match_dist_m": 324, "aoi": "AOI02", "aoi_name": "Timure" }, "geometry": { "type": "Point", "coordinates": [ 85.376862948061813, 28.27329773012524 ] } },
{ "type": "Feature", "properties": { "fid": 15, "cluster": 4, "n_buildings": 4, "n_destroyed": 4, "frac_destroyed": 1.0, "est_population": 3, "destroyed": true, "settlement_id": "AOI02-S09", "access_status": "destroyed", "route_note": "Settlement within/majority-within mapped hazard extent", "route_length_m": null, "place_name": null, "name_match_dist_m": null, "municipality": "Gosaikunda", "res_match_dist_m": 187, "aoi": "AOI02", "aoi_name": "Timure" }, "geometry": { "type": "Point", "coordinates": [ 85.364245097550821, 28.255526387518145 ] } },
{ "type": "Feature", "properties": { "fid": 16, "cluster": 5, "n_buildings": 3, "n_destroyed": 3, "frac_destroyed": 1.0, "est_population": 2, "destroyed": true, "settlement_id": "AOI02-S10", "access_status": "destroyed", "route_note": "Settlement within/majority-within mapped hazard extent", "route_length_m": null, "place_name": null, "name_match_dist_m": null, "municipality": "Gosaikunda", "res_match_dist_m": 426, "aoi": "AOI02", "aoi_name": "Timure" }, "geometry": { "type": "Point", "coordinates": [ 85.370384426394708, 28.260062613423148 ] } },
{ "type": "Feature", "properties": { "fid": 17, "cluster": 2, "n_buildings": 1, "n_destroyed": 1, "frac_destroyed": 1.0, "est_population": 1, "destroyed": true, "settlement_id": "AOI02-S11", "access_status": "destroyed", "route_note": "Settlement within/majority-within mapped hazard extent", "route_length_m": null, "place_name": null, "name_match_dist_m": null, "municipality": "Gosaikunda", "res_match_dist_m": 382, "aoi": "AOI02", "aoi_name": "Timure" }, "geometry": { "type": "Point", "coordinates": [ 85.36430789, 28.24804617 ] } },
{ "type": "Feature", "properties": { "fid": 18, "cluster": 43, "n_buildings": 726, "n_destroyed": 676, "frac_destroyed": 0.93, "est_population": 3986, "destroyed": true, "settlement_id": "AOI03-S01", "access_status": "destroyed", "route_note": "Settlement within/majority-within mapped hazard extent", "route_length_m": null, "place_name": "Betrawati", "name_match_dist_m": 443.0, "municipality": "Kispang", "res_match_dist_m": 15, "aoi": "AOI03", "aoi_name": "Bidur" }, "geometry": { "type": "Point", "coordinates": [ 85.182585177690683, 27.975766678564938 ] } },
{ "type": "Feature", "properties": { "fid": 19, "cluster": 29, "n_buildings": 463, "n_destroyed": 321, "frac_destroyed": 0.69, "est_population": 2542, "destroyed": true, "settlement_id": "AOI03-S02", "access_status": "destroyed", "route_note": "Settlement within/majority-within mapped hazard extent", "route_length_m": null, "place_name": "Trishuli", "name_match_dist_m": 86.0, "municipality": "Bidur", "res_match_dist_m": 0, "aoi": "AOI03", "aoi_name": "Bidur" }, "geometry": { "type": "Point", "coordinates": [ 85.147995876896687, 27.922387186855453 ] } },
{ "type": "Feature", "properties": { "fid": 20, "cluster": 1, "n_buildings": 407, "n_destroyed": 288, "frac_destroyed": 0.71, "est_population": 2234, "destroyed": true, "settlement_id": "AOI03-S03", "access_status": "destroyed", "route_note": "Settlement within/majority-within mapped hazard extent", "route_length_m": null, "place_name": "Devighat", "name_match_dist_m": 171.0, "municipality": "Bidur", "res_match_dist_m": 0, "aoi": "AOI03", "aoi_name": "Bidur" }, "geometry": { "type": "Point", "coordinates": [ 85.11043392956843, 27.861536749751497 ] } },
{ "type": "Feature", "properties": { "fid": 21, "cluster": 42, "n_buildings": 340, "n_destroyed": 285, "frac_destroyed": 0.84, "est_population": 1867, "destroyed": true, "settlement_id": "AOI03-S04", "access_status": "destroyed", "route_note": "Settlement within/majority-within mapped hazard extent", "route_length_m": null, "place_name": "Bhainse", "name_match_dist_m": 580.0, "municipality": "Bidur", "res_match_dist_m": 2, "aoi": "AOI03", "aoi_name": "Bidur" }, "geometry": { "type": "Point", "coordinates": [ 85.173016893233765, 27.965022617239693 ] } },
{ "type": "Feature", "properties": { "fid": 22, "cluster": 47, "n_buildings": 257, "n_destroyed": 245, "frac_destroyed": 0.95, "est_population": 1411, "destroyed": true, "settlement_id": "AOI03-S05", "access_status": "destroyed", "route_note": "Settlement within/majority-within mapped hazard extent", "route_length_m": null, "place_name": null, "name_match_dist_m": null, "municipality": "Kispang", "res_match_dist_m": 11, "aoi": "AOI03", "aoi_name": "Bidur" }, "geometry": { "type": "Point", "coordinates": [ 85.18343474865145, 27.993728865565537 ] } },
{ "type": "Feature", "properties": { "fid": 23, "cluster": 31, "n_buildings": 168, "n_destroyed": 143, "frac_destroyed": 0.85, "est_population": 922, "destroyed": true, "settlement_id": "AOI03-S06", "access_status": "destroyed", "route_note": "Settlement within/majority-within mapped hazard extent", "route_length_m": null, "place_name": null, "name_match_dist_m": null, "municipality": "Bidur", "res_match_dist_m": 55, "aoi": "AOI03", "aoi_name": "Bidur" }, "geometry": { "type": "Point", "coordinates": [ 85.154066561087973, 27.936569890082826 ] } },
{ "type": "Feature", "properties": { "fid": 24, "cluster": 19, "n_buildings": 126, "n_destroyed": 107, "frac_destroyed": 0.85, "est_population": 692, "destroyed": true, "settlement_id": "AOI03-S07", "access_status": "destroyed", "route_note": "Settlement within/majority-within mapped hazard extent", "route_length_m": null, "place_name": null, "name_match_dist_m": null, "municipality": "Bidur", "res_match_dist_m": 106, "aoi": "AOI03", "aoi_name": "Bidur" }, "geometry": { "type": "Point", "coordinates": [ 85.136677988212966, 27.891847400497522 ] } },
{ "type": "Feature", "properties": { "fid": 25, "cluster": 36, "n_buildings": 67, "n_destroyed": 44, "frac_destroyed": 0.66, "est_population": 368, "destroyed": true, "settlement_id": "AOI03-S08", "access_status": "destroyed", "route_note": "Settlement within/majority-within mapped hazard extent", "route_length_m": null, "place_name": null, "name_match_dist_m": null, "municipality": "Bidur", "res_match_dist_m": 0, "aoi": "AOI03", "aoi_name": "Bidur" }, "geometry": { "type": "Point", "coordinates": [ 85.159963637375995, 27.945658872520401 ] } },
{ "type": "Feature", "properties": { "fid": 26, "cluster": 48, "n_buildings": 60, "n_destroyed": 59, "frac_destroyed": 0.98, "est_population": 329, "destroyed": true, "settlement_id": "AOI03-S09", "access_status": "destroyed", "route_note": "Settlement within/majority-within mapped hazard extent", "route_length_m": null, "place_name": null, "name_match_dist_m": null, "municipality": "Kispang", "res_match_dist_m": 17, "aoi": "AOI03", "aoi_name": "Bidur" }, "geometry": { "type": "Point", "coordinates": [ 85.18408829663403, 28.006637828812735 ] } },
{ "type": "Feature", "properties": { "fid": 27, "cluster": 22, "n_buildings": 54, "n_destroyed": 37, "frac_destroyed": 0.69, "est_population": 296, "destroyed": true, "settlement_id": "AOI03-S10", "access_status": "destroyed", "route_note": "Settlement within/majority-within mapped hazard extent", "route_length_m": null, "place_name": null, "name_match_dist_m": null, "municipality": "Bidur", "res_match_dist_m": 0, "aoi": "AOI03", "aoi_name": "Bidur" }, "geometry": { "type": "Point", "coordinates": [ 85.138128096058523, 27.915176881653633 ] } },
{ "type": "Feature", "properties": { "fid": 28, "cluster": 28, "n_buildings": 51, "n_destroyed": 37, "frac_destroyed": 0.73, "est_population": 280, "destroyed": true, "settlement_id": "AOI03-S11", "access_status": "destroyed", "route_note": "Settlement within/majority-within mapped hazard extent", "route_length_m": null, "place_name": null, "name_match_dist_m": null, "municipality": "Bidur", "res_match_dist_m": 0, "aoi": "AOI03", "aoi_name": "Bidur" }, "geometry": { "type": "Point", "coordinates": [ 85.139445882958384, 27.909275331305317 ] } },
{ "type": "Feature", "properties": { "fid": 29, "cluster": 7, "n_buildings": 44, "n_destroyed": 15, "frac_destroyed": 0.34, "est_population": 242, "destroyed": false, "settlement_id": "AOI03-S12", "access_status": "foot_access_only", "route_note": "Connected via cart track/trail network to AOI boundary (1698 m)", "route_length_m": "1791.8544217524668", "place_name": null, "name_match_dist_m": null, "municipality": "Bidur", "res_match_dist_m": 8, "aoi": "AOI03", "aoi_name": "Bidur" }, "geometry": { "type": "Point", "coordinates": [ 85.118143483101321, 27.874145038711383 ] } },
{ "type": "Feature", "properties": { "fid": 30, "cluster": 14, "n_buildings": 41, "n_destroyed": 16, "frac_destroyed": 0.39, "est_population": 225, "destroyed": false, "settlement_id": "AOI03-S13", "access_status": "cut_off", "route_note": "No mapped road/track within 250 m of settlement", "route_length_m": null, "place_name": null, "name_match_dist_m": null, "municipality": "Bidur", "res_match_dist_m": 490, "aoi": "AOI03", "aoi_name": "Bidur" }, "geometry": { "type": "Point", "coordinates": [ 85.12937321010979, 27.88143576046064 ] } },
{ "type": "Feature", "properties": { "fid": 31, "cluster": 38, "n_buildings": 31, "n_destroyed": 20, "frac_destroyed": 0.65, "est_population": 170, "destroyed": true, "settlement_id": "AOI03-S14", "access_status": "destroyed", "route_note": "Settlement within/majority-within mapped hazard extent", "route_length_m": null, "place_name": null, "name_match_dist_m": null, "municipality": "Bidur", "res_match_dist_m": 0, "aoi": "AOI03", "aoi_name": "Bidur" }, "geometry": { "type": "Point", "coordinates": [ 85.163972208542674, 27.953792151797163 ] } },
{ "type": "Feature", "properties": { "fid": 32, "cluster": 30, "n_buildings": 23, "n_destroyed": 23, "frac_destroyed": 1.0, "est_population": 126, "destroyed": true, "settlement_id": "AOI03-S15", "access_status": "destroyed", "route_note": "Settlement within/majority-within mapped hazard extent", "route_length_m": null, "place_name": null, "name_match_dist_m": null, "municipality": "Bidur", "res_match_dist_m": 162, "aoi": "AOI03", "aoi_name": "Bidur" }, "geometry": { "type": "Point", "coordinates": [ 85.147525997261113, 27.929390817192402 ] } },
{ "type": "Feature", "properties": { "fid": 33, "cluster": 49, "n_buildings": 22, "n_destroyed": 20, "frac_destroyed": 0.91, "est_population": 121, "destroyed": true, "settlement_id": "AOI03-S16", "access_status": "destroyed", "route_note": "Settlement within/majority-within mapped hazard extent", "route_length_m": null, "place_name": null, "name_match_dist_m": null, "municipality": "Kispang", "res_match_dist_m": 11, "aoi": "AOI03", "aoi_name": "Bidur" }, "geometry": { "type": "Point", "coordinates": [ 85.185341638194672, 28.001728988326143 ] } },
{ "type": "Feature", "properties": { "fid": 34, "cluster": 24, "n_buildings": 17, "n_destroyed": 13, "frac_destroyed": 0.76, "est_population": 93, "destroyed": true, "settlement_id": "AOI03-S17", "access_status": "destroyed", "route_note": "Settlement within/majority-within mapped hazard extent", "route_length_m": null, "place_name": null, "name_match_dist_m": null, "municipality": "Bidur", "res_match_dist_m": 162, "aoi": "AOI03", "aoi_name": "Bidur" }, "geometry": { "type": "Point", "coordinates": [ 85.139091234006145, 27.918455821107241 ] } },
{ "type": "Feature", "properties": { "fid": 35, "cluster": 15, "n_buildings": 15, "n_destroyed": 15, "frac_destroyed": 1.0, "est_population": 82, "destroyed": true, "settlement_id": "AOI03-S18", "access_status": "destroyed", "route_note": "Settlement within/majority-within mapped hazard extent", "route_length_m": null, "place_name": null, "name_match_dist_m": null, "municipality": "Bidur", "res_match_dist_m": 218, "aoi": "AOI03", "aoi_name": "Bidur" }, "geometry": { "type": "Point", "coordinates": [ 85.131208564752555, 27.884089799222394 ] } },
{ "type": "Feature", "properties": { "fid": 36, "cluster": 6, "n_buildings": 15, "n_destroyed": 15, "frac_destroyed": 1.0, "est_population": 82, "destroyed": true, "settlement_id": "AOI03-S19", "access_status": "destroyed", "route_note": "Settlement within/majority-within mapped hazard extent", "route_length_m": null, "place_name": null, "name_match_dist_m": null, "municipality": "Bidur", "res_match_dist_m": 300, "aoi": "AOI03", "aoi_name": "Bidur" }, "geometry": { "type": "Point", "coordinates": [ 85.115215088081499, 27.871161623739006 ] } },
{ "type": "Feature", "properties": { "fid": 37, "cluster": 41, "n_buildings": 14, "n_destroyed": 14, "frac_destroyed": 1.0, "est_population": 77, "destroyed": true, "settlement_id": "AOI03-S20", "access_status": "destroyed", "route_note": "Settlement within/majority-within mapped hazard extent", "route_length_m": null, "place_name": "Bhainse", "name_match_dist_m": 288.0, "municipality": "Bidur", "res_match_dist_m": 0, "aoi": "AOI03", "aoi_name": "Bidur" }, "geometry": { "type": "Point", "coordinates": [ 85.168577138697415, 27.958292020864903 ] } },
{ "type": "Feature", "properties": { "fid": 38, "cluster": 44, "n_buildings": 13, "n_destroyed": 9, "frac_destroyed": 0.69, "est_population": 71, "destroyed": true, "settlement_id": "AOI03-S21", "access_status": "destroyed", "route_note": "Settlement within/majority-within mapped hazard extent", "route_length_m": null, "place_name": null, "name_match_dist_m": null, "municipality": "Kispang", "res_match_dist_m": 247, "aoi": "AOI03", "aoi_name": "Bidur" }, "geometry": { "type": "Point", "coordinates": [ 85.175797528638853, 27.98317527935961 ] } },
{ "type": "Feature", "properties": { "fid": 39, "cluster": 23, "n_buildings": 9, "n_destroyed": 9, "frac_destroyed": 1.0, "est_population": 49, "destroyed": true, "settlement_id": "AOI03-S22", "access_status": "destroyed", "route_note": "Settlement within/majority-within mapped hazard extent", "route_length_m": null, "place_name": null, "name_match_dist_m": null, "municipality": "Bidur", "res_match_dist_m": 0, "aoi": "AOI03", "aoi_name": "Bidur" }, "geometry": { "type": "Point", "coordinates": [ 85.134939215415173, 27.914628647993798 ] } },
{ "type": "Feature", "properties": { "fid": 40, "cluster": 27, "n_buildings": 9, "n_destroyed": 9, "frac_destroyed": 1.0, "est_population": 49, "destroyed": true, "settlement_id": "AOI03-S23", "access_status": "destroyed", "route_note": "Settlement within/majority-within mapped hazard extent", "route_length_m": null, "place_name": null, "name_match_dist_m": null, "municipality": "Bidur", "res_match_dist_m": 156, "aoi": "AOI03", "aoi_name": "Bidur" }, "geometry": { "type": "Point", "coordinates": [ 85.141239056053792, 27.906497400286053 ] } },
{ "type": "Feature", "properties": { "fid": 41, "cluster": 11, "n_buildings": 9, "n_destroyed": 3, "frac_destroyed": 0.33, "est_population": 49, "destroyed": false, "settlement_id": "AOI03-S24", "access_status": "foot_access_only", "route_note": "Connected via cart track/trail network to AOI boundary (1583 m)", "route_length_m": "1653.0743859993925", "place_name": null, "name_match_dist_m": null, "municipality": "Bidur", "res_match_dist_m": 240, "aoi": "AOI03", "aoi_name": "Bidur" }, "geometry": { "type": "Point", "coordinates": [ 85.122960377591767, 27.876183838807282 ] } },
{ "type": "Feature", "properties": { "fid": 42, "cluster": 5, "n_buildings": 9, "n_destroyed": 2, "frac_destroyed": 0.22, "est_population": 49, "destroyed": false, "settlement_id": "AOI03-S25", "access_status": "foot_access_only", "route_note": "Connected via cart track/trail network to AOI boundary (934 m)", "route_length_m": "990.3699978831263", "place_name": null, "name_match_dist_m": null, "municipality": "Bidur", "res_match_dist_m": 182, "aoi": "AOI03", "aoi_name": "Bidur" }, "geometry": { "type": "Point", "coordinates": [ 85.111680994310532, 27.867326335901698 ] } },
{ "type": "Feature", "properties": { "fid": 43, "cluster": 32, "n_buildings": 8, "n_destroyed": 6, "frac_destroyed": 0.75, "est_population": 44, "destroyed": true, "settlement_id": "AOI03-S26", "access_status": "destroyed", "route_note": "Settlement within/majority-within mapped hazard extent", "route_length_m": null, "place_name": "Trishuli", "name_match_dist_m": 579.0, "municipality": "Bidur", "res_match_dist_m": 76, "aoi": "AOI03", "aoi_name": "Bidur" }, "geometry": { "type": "Point", "coordinates": [ 85.150896302090302, 27.927700614623618 ] } },
{ "type": "Feature", "properties": { "fid": 44, "cluster": 35, "n_buildings": 8, "n_destroyed": 8, "frac_destroyed": 1.0, "est_population": 44, "destroyed": true, "settlement_id": "AOI03-S27", "access_status": "destroyed", "route_note": "Settlement within/majority-within mapped hazard extent", "route_length_m": null, "place_name": null, "name_match_dist_m": null, "municipality": "Bidur", "res_match_dist_m": 0, "aoi": "AOI03", "aoi_name": "Bidur" }, "geometry": { "type": "Point", "coordinates": [ 85.153546461760115, 27.933431510937698 ] } },
{ "type": "Feature", "properties": { "fid": 45, "cluster": 40, "n_buildings": 5, "n_destroyed": 5, "frac_destroyed": 1.0, "est_population": 27, "destroyed": true, "settlement_id": "AOI03-S28", "access_status": "destroyed", "route_note": "Settlement within/majority-within mapped hazard extent", "route_length_m": null, "place_name": "Bhainse", "name_match_dist_m": 577.0, "municipality": "Bidur", "res_match_dist_m": 202, "aoi": "AOI03", "aoi_name": "Bidur" }, "geometry": { "type": "Point", "coordinates": [ 85.16496659666204, 27.958255416618595 ] } },
{ "type": "Feature", "properties": { "fid": 46, "cluster": 45, "n_buildings": 5, "n_destroyed": 1, "frac_destroyed": 0.2, "est_population": 27, "destroyed": false, "settlement_id": "AOI03-S29", "access_status": "cut_off", "route_note": "No surviving mapped road/track connects this settlement to the AOI boundary", "route_length_m": null, "place_name": null, "name_match_dist_m": null, "municipality": "Bidur", "res_match_dist_m": 18, "aoi": "AOI03", "aoi_name": "Bidur" }, "geometry": { "type": "Point", "coordinates": [ 85.180126055969012, 27.970695096066112 ] } },
{ "type": "Feature", "properties": { "fid": 47, "cluster": 0, "n_buildings": 5, "n_destroyed": 3, "frac_destroyed": 0.6, "est_population": 27, "destroyed": true, "settlement_id": "AOI03-S30", "access_status": "destroyed", "route_note": "Settlement within/majority-within mapped hazard extent", "route_length_m": null, "place_name": null, "name_match_dist_m": null, "municipality": "Bidur", "res_match_dist_m": 0, "aoi": "AOI03", "aoi_name": "Bidur" }, "geometry": { "type": "Point", "coordinates": [ 85.10178123596225, 27.857331518041029 ] } },
{ "type": "Feature", "properties": { "fid": 48, "cluster": 13, "n_buildings": 5, "n_destroyed": 5, "frac_destroyed": 1.0, "est_population": 27, "destroyed": true, "settlement_id": "AOI03-S31", "access_status": "destroyed", "route_note": "Settlement within/majority-within mapped hazard extent", "route_length_m": null, "place_name": null, "name_match_dist_m": null, "municipality": "Bidur", "res_match_dist_m": 118, "aoi": "AOI03", "aoi_name": "Bidur" }, "geometry": { "type": "Point", "coordinates": [ 85.124554324268161, 27.877144600402723 ] } },
{ "type": "Feature", "properties": { "fid": 49, "cluster": 2, "n_buildings": 4, "n_destroyed": 0, "frac_destroyed": 0.0, "est_population": 22, "destroyed": false, "settlement_id": "AOI03-S32", "access_status": "foot_access_only", "route_note": "Connected via cart track/trail network to AOI boundary (164 m)", "route_length_m": "171.06999378404248", "place_name": null, "name_match_dist_m": null, "municipality": "Bidur", "res_match_dist_m": 0, "aoi": "AOI03", "aoi_name": "Bidur" }, "geometry": { "type": "Point", "coordinates": [ 85.102137242041508, 27.859570133382388 ] } },
{ "type": "Feature", "properties": { "fid": 50, "cluster": 16, "n_buildings": 3, "n_destroyed": 1, "frac_destroyed": 0.33, "est_population": 16, "destroyed": false, "settlement_id": "AOI03-S33", "access_status": "road_accessible", "route_note": "Connected via vehicle road network to AOI boundary (954 m)", "route_length_m": "990.6002130284746", "place_name": null, "name_match_dist_m": null, "municipality": "Bidur", "res_match_dist_m": 32, "aoi": "AOI03", "aoi_name": "Bidur" }, "geometry": { "type": "Point", "coordinates": [ 85.130681719773506, 27.886190990899173 ] } },
{ "type": "Feature", "properties": { "fid": 51, "cluster": 37, "n_buildings": 3, "n_destroyed": 3, "frac_destroyed": 1.0, "est_population": 16, "destroyed": true, "settlement_id": "AOI03-S34", "access_status": "destroyed", "route_note": "Settlement within/majority-within mapped hazard extent", "route_length_m": null, "place_name": null, "name_match_dist_m": null, "municipality": "Bidur", "res_match_dist_m": 225, "aoi": "AOI03", "aoi_name": "Bidur" }, "geometry": { "type": "Point", "coordinates": [ 85.163667953317017, 27.948320146680988 ] } },
{ "type": "Feature", "properties": { "fid": 52, "cluster": 17, "n_buildings": 2, "n_destroyed": 2, "frac_destroyed": 1.0, "est_population": 11, "destroyed": true, "settlement_id": "AOI03-S35", "access_status": "destroyed", "route_note": "Settlement within/majority-within mapped hazard extent", "route_length_m": null, "place_name": null, "name_match_dist_m": null, "municipality": "Bidur", "res_match_dist_m": 97, "aoi": "AOI03", "aoi_name": "Bidur" }, "geometry": { "type": "Point", "coordinates": [ 85.133784204987975, 27.886008280035007 ] } },
{ "type": "Feature", "properties": { "fid": 53, "cluster": 34, "n_buildings": 2, "n_destroyed": 2, "frac_destroyed": 1.0, "est_population": 11, "destroyed": true, "settlement_id": "AOI03-S36", "access_status": "destroyed", "route_note": "Settlement within/majority-within mapped hazard extent", "route_length_m": null, "place_name": null, "name_match_dist_m": null, "municipality": "Bidur", "res_match_dist_m": 139, "aoi": "AOI03", "aoi_name": "Bidur" }, "geometry": { "type": "Point", "coordinates": [ 85.154087039980041, 27.930747310019342 ] } },
{ "type": "Feature", "properties": { "fid": 54, "cluster": 18, "n_buildings": 2, "n_destroyed": 2, "frac_destroyed": 1.0, "est_population": 11, "destroyed": true, "settlement_id": "AOI03-S37", "access_status": "destroyed", "route_note": "Settlement within/majority-within mapped hazard extent", "route_length_m": null, "place_name": null, "name_match_dist_m": null, "municipality": "Bidur", "res_match_dist_m": 149, "aoi": "AOI03", "aoi_name": "Bidur" }, "geometry": { "type": "Point", "coordinates": [ 85.132348424991051, 27.886512615004523 ] } },
{ "type": "Feature", "properties": { "fid": 55, "cluster": 12, "n_buildings": 2, "n_destroyed": 2, "frac_destroyed": 1.0, "est_population": 11, "destroyed": true, "settlement_id": "AOI03-S38", "access_status": "destroyed", "route_note": "Settlement within/majority-within mapped hazard extent", "route_length_m": null, "place_name": null, "name_match_dist_m": null, "municipality": "Bidur", "res_match_dist_m": 285, "aoi": "AOI03", "aoi_name": "Bidur" }, "geometry": { "type": "Point", "coordinates": [ 85.127409664994502, 27.876244080003044 ] } },
{ "type": "Feature", "properties": { "fid": 56, "cluster": 33, "n_buildings": 2, "n_destroyed": 2, "frac_destroyed": 1.0, "est_population": 11, "destroyed": true, "settlement_id": "AOI03-S39", "access_status": "destroyed", "route_note": "Settlement within/majority-within mapped hazard extent", "route_length_m": null, "place_name": null, "name_match_dist_m": null, "municipality": "Bidur", "res_match_dist_m": 37, "aoi": "AOI03", "aoi_name": "Bidur" }, "geometry": { "type": "Point", "coordinates": [ 85.150303219998989, 27.929641880000112 ] } },
{ "type": "Feature", "properties": { "fid": 57, "cluster": 10, "n_buildings": 1, "n_destroyed": 1, "frac_destroyed": 1.0, "est_population": 5, "destroyed": true, "settlement_id": "AOI03-S40", "access_status": "destroyed", "route_note": "Settlement within/majority-within mapped hazard extent", "route_length_m": null, "place_name": null, "name_match_dist_m": null, "municipality": "Bidur", "res_match_dist_m": 308, "aoi": "AOI03", "aoi_name": "Bidur" }, "geometry": { "type": "Point", "coordinates": [ 85.1251979, 27.87548463 ] } },
{ "type": "Feature", "properties": { "fid": 58, "cluster": 8, "n_buildings": 1, "n_destroyed": 1, "frac_destroyed": 1.0, "est_population": 5, "destroyed": true, "settlement_id": "AOI03-S41", "access_status": "destroyed", "route_note": "Settlement within/majority-within mapped hazard extent", "route_length_m": null, "place_name": null, "name_match_dist_m": null, "municipality": "Bidur", "res_match_dist_m": 348, "aoi": "AOI03", "aoi_name": "Bidur" }, "geometry": { "type": "Point", "coordinates": [ 85.12165775, 27.87395125 ] } },
{ "type": "Feature", "properties": { "fid": 59, "cluster": 9, "n_buildings": 1, "n_destroyed": 1, "frac_destroyed": 1.0, "est_population": 5, "destroyed": true, "settlement_id": "AOI03-S42", "access_status": "destroyed", "route_note": "Settlement within/majority-within mapped hazard extent", "route_length_m": null, "place_name": null, "name_match_dist_m": null, "municipality": "Bidur", "res_match_dist_m": 392, "aoi": "AOI03", "aoi_name": "Bidur" }, "geometry": { "type": "Point", "coordinates": [ 85.1227462, 27.87479865 ] } },
{ "type": "Feature", "properties": { "fid": 60, "cluster": 4, "n_buildings": 1, "n_destroyed": 1, "frac_destroyed": 1.0, "est_population": 5, "destroyed": true, "settlement_id": "AOI03-S43", "access_status": "destroyed", "route_note": "Settlement within/majority-within mapped hazard extent", "route_length_m": null, "place_name": "Devighat", "name_match_dist_m": 542.0, "municipality": "Bidur", "res_match_dist_m": 176, "aoi": "AOI03", "aoi_name": "Bidur" }, "geometry": { "type": "Point", "coordinates": [ 85.1106097, 27.8648953 ] } },
{ "type": "Feature", "properties": { "fid": 61, "cluster": 3, "n_buildings": 1, "n_destroyed": 1, "frac_destroyed": 1.0, "est_population": 5, "destroyed": true, "settlement_id": "AOI03-S44", "access_status": "destroyed", "route_note": "Settlement within/majority-within mapped hazard extent", "route_length_m": null, "place_name": "Devighat", "name_match_dist_m": 375.0, "municipality": "Bidur", "res_match_dist_m": 145, "aoi": "AOI03", "aoi_name": "Bidur" }, "geometry": { "type": "Point", "coordinates": [ 85.1103375, 27.863403 ] } },
{ "type": "Feature", "properties": { "fid": 62, "cluster": 20, "n_buildings": 1, "n_destroyed": 1, "frac_destroyed": 1.0, "est_population": 5, "destroyed": true, "settlement_id": "AOI03-S45", "access_status": "destroyed", "route_note": "Settlement within/majority-within mapped hazard extent", "route_length_m": null, "place_name": null, "name_match_dist_m": null, "municipality": "Bidur", "res_match_dist_m": 418, "aoi": "AOI03", "aoi_name": "Bidur" }, "geometry": { "type": "Point", "coordinates": [ 85.13619975, 27.89496285 ] } },
{ "type": "Feature", "properties": { "fid": 63, "cluster": 25, "n_buildings": 1, "n_destroyed": 1, "frac_destroyed": 1.0, "est_population": 5, "destroyed": true, "settlement_id": "AOI03-S46", "access_status": "destroyed", "route_note": "Settlement within/majority-within mapped hazard extent", "route_length_m": null, "place_name": null, "name_match_dist_m": null, "municipality": "Bidur", "res_match_dist_m": 352, "aoi": "AOI03", "aoi_name": "Bidur" }, "geometry": { "type": "Point", "coordinates": [ 85.135717, 27.9211008 ] } },
{ "type": "Feature", "properties": { "fid": 64, "cluster": 26, "n_buildings": 1, "n_destroyed": 1, "frac_destroyed": 1.0, "est_population": 5, "destroyed": true, "settlement_id": "AOI03-S47", "access_status": "destroyed", "route_note": "Settlement within/majority-within mapped hazard extent", "route_length_m": null, "place_name": null, "name_match_dist_m": null, "municipality": "Bidur", "res_match_dist_m": 249, "aoi": "AOI03", "aoi_name": "Bidur" }, "geometry": { "type": "Point", "coordinates": [ 85.14024853, 27.90346896 ] } },
{ "type": "Feature", "properties": { "fid": 65, "cluster": 21, "n_buildings": 1, "n_destroyed": 1, "frac_destroyed": 1.0, "est_population": 5, "destroyed": true, "settlement_id": "AOI03-S48", "access_status": "destroyed", "route_note": "Settlement within/majority-within mapped hazard extent", "route_length_m": null, "place_name": null, "name_match_dist_m": null, "municipality": "Bidur", "res_match_dist_m": 181, "aoi": "AOI03", "aoi_name": "Bidur" }, "geometry": { "type": "Point", "coordinates": [ 85.136230970000014, 27.91084495 ] } },
{ "type": "Feature", "properties": { "fid": 66, "cluster": 39, "n_buildings": 1, "n_destroyed": 1, "frac_destroyed": 1.0, "est_population": 5, "destroyed": true, "settlement_id": "AOI03-S49", "access_status": "destroyed", "route_note": "Settlement within/majority-within mapped hazard extent", "route_length_m": null, "place_name": null, "name_match_dist_m": null, "municipality": "Bidur", "res_match_dist_m": 140, "aoi": "AOI03", "aoi_name": "Bidur" }, "geometry": { "type": "Point", "coordinates": [ 85.16197625, 27.9554734 ] } },
{ "type": "Feature", "properties": { "fid": 67, "cluster": 46, "n_buildings": 1, "n_destroyed": 1, "frac_destroyed": 1.0, "est_population": 5, "destroyed": true, "settlement_id": "AOI03-S50", "access_status": "destroyed", "route_note": "Settlement within/majority-within mapped hazard extent", "route_length_m": null, "place_name": "Naubisephat", "name_match_dist_m": 266.0, "municipality": "Kispang", "res_match_dist_m": 156, "aoi": "AOI03", "aoi_name": "Bidur" }, "geometry": { "type": "Point", "coordinates": [ 85.1798584, 27.98471065 ] } },
{ "type": "Feature", "properties": { "fid": 68, "cluster": 50, "n_buildings": 1, "n_destroyed": 1, "frac_destroyed": 1.0, "est_population": 5, "destroyed": true, "settlement_id": "AOI03-S51", "access_status": "destroyed", "route_note": "Settlement within/majority-within mapped hazard extent", "route_length_m": null, "place_name": null, "name_match_dist_m": null, "municipality": "Kispang", "res_match_dist_m": 101, "aoi": "AOI03", "aoi_name": "Bidur" }, "geometry": { "type": "Point", "coordinates": [ 85.18635053, 28.00203509 ] } },
{ "type": "Feature", "properties": { "fid": 69, "cluster": 1, "n_buildings": 104, "n_destroyed": 41, "frac_destroyed": 0.39, "est_population": 2087, "destroyed": false, "settlement_id": "AOI05-S01", "access_status": "foot_access_only", "route_note": "Connected via cart track/trail network to AOI boundary (2281 m)", "route_length_m": "2621.7091448115652", "place_name": null, "name_match_dist_m": null, "municipality": "Galchhi", "res_match_dist_m": 0, "aoi": "AOI05", "aoi_name": "Phosretar" }, "geometry": { "type": "Point", "coordinates": [ 84.952860030759155, 27.814495121245514 ] } },
{ "type": "Feature", "properties": { "fid": 70, "cluster": 16, "n_buildings": 66, "n_destroyed": 29, "frac_destroyed": 0.44, "est_population": 1324, "destroyed": true, "settlement_id": "AOI05-S02", "access_status": "destroyed", "route_note": "Settlement within/majority-within mapped hazard extent", "route_length_m": null, "place_name": "Bairani Bazzar", "name_match_dist_m": null, "municipality": "Galchhi", "res_match_dist_m": 287, "aoi": "AOI05", "aoi_name": "Phosretar" }, "geometry": { "type": "Point", "coordinates": [ 84.989436357686614, 27.800817635521206 ] } },
{ "type": "Feature", "properties": { "fid": 71, "cluster": 11, "n_buildings": 48, "n_destroyed": 26, "frac_destroyed": 0.54, "est_population": 963, "destroyed": true, "settlement_id": "AOI05-S03", "access_status": "destroyed", "route_note": "Settlement within/majority-within mapped hazard extent", "route_length_m": null, "place_name": "MaheshDovan", "name_match_dist_m": 213.0, "municipality": "Galchhi", "res_match_dist_m": 0, "aoi": "AOI05", "aoi_name": "Phosretar" }, "geometry": { "type": "Point", "coordinates": [ 84.9778888553966, 27.800845816439232 ] } },
{ "type": "Feature", "properties": { "fid": 72, "cluster": 32, "n_buildings": 44, "n_destroyed": 8, "frac_destroyed": 0.18, "est_population": 883, "destroyed": false, "settlement_id": "AOI05-S04", "access_status": "foot_access_only", "route_note": "Connected via cart track/trail network to AOI boundary (2634 m)", "route_length_m": "2769.422058576578", "place_name": "Keurini", "name_match_dist_m": null, "municipality": "Belkotgadhi", "res_match_dist_m": 0, "aoi": "AOI05", "aoi_name": "Phosretar" }, "geometry": { "type": "Point", "coordinates": [ 85.021973673089121, 27.829557313066477 ] } },
{ "type": "Feature", "properties": { "fid": 73, "cluster": 52, "n_buildings": 29, "n_destroyed": 28, "frac_destroyed": 0.97, "est_population": 582, "destroyed": true, "settlement_id": "AOI05-S05", "access_status": "destroyed", "route_note": "Settlement within/majority-within mapped hazard extent", "route_length_m": null, "place_name": null, "name_match_dist_m": null, "municipality": "Bidur", "res_match_dist_m": 23, "aoi": "AOI05", "aoi_name": "Phosretar" }, "geometry": { "type": "Point", "coordinates": [ 85.080047653528609, 27.854317670382642 ] } },
{ "type": "Feature", "properties": { "fid": 74, "cluster": 61, "n_buildings": 22, "n_destroyed": 18, "frac_destroyed": 0.82, "est_population": 441, "destroyed": true, "settlement_id": "AOI05-S06", "access_status": "destroyed", "route_note": "Settlement within/majority-within mapped hazard extent", "route_length_m": null, "place_name": null, "name_match_dist_m": null, "municipality": "Bidur", "res_match_dist_m": 0, "aoi": "AOI05", "aoi_name": "Phosretar" }, "geometry": { "type": "Point", "coordinates": [ 85.096621641834233, 27.858764781552441 ] } },
{ "type": "Feature", "properties": { "fid": 75, "cluster": 21, "n_buildings": 20, "n_destroyed": 0, "frac_destroyed": 0.0, "est_population": 401, "destroyed": false, "settlement_id": "AOI05-S07", "access_status": "foot_access_only", "route_note": "Connected via cart track/trail network to AOI boundary (1049 m)", "route_length_m": "1185.2615235996566", "place_name": null, "name_match_dist_m": null, "municipality": "Galchhi", "res_match_dist_m": 0, "aoi": "AOI05", "aoi_name": "Phosretar" }, "geometry": { "type": "Point", "coordinates": [ 85.005093238060084, 27.802908343154318 ] } },
{ "type": "Feature", "properties": { "fid": 76, "cluster": 54, "n_buildings": 18, "n_destroyed": 14, "frac_destroyed": 0.78, "est_population": 361, "destroyed": true, "settlement_id": "AOI05-S08", "access_status": "destroyed", "route_note": "Settlement within/majority-within mapped hazard extent", "route_length_m": null, "place_name": null, "name_match_dist_m": null, "municipality": "Bidur", "res_match_dist_m": 0, "aoi": "AOI05", "aoi_name": "Phosretar" }, "geometry": { "type": "Point", "coordinates": [ 85.072590241138641, 27.854794711020435 ] } },
{ "type": "Feature", "properties": { "fid": 77, "cluster": 4, "n_buildings": 17, "n_destroyed": 6, "frac_destroyed": 0.35, "est_population": 341, "destroyed": true, "settlement_id": "AOI05-S09", "access_status": "destroyed", "route_note": "Settlement within/majority-within mapped hazard extent", "route_length_m": null, "place_name": null, "name_match_dist_m": null, "municipality": "Galchhi", "res_match_dist_m": 340, "aoi": "AOI05", "aoi_name": "Phosretar" }, "geometry": { "type": "Point", "coordinates": [ 84.968728807212244, 27.807370845345549 ] } },
{ "type": "Feature", "properties": { "fid": 78, "cluster": 59, "n_buildings": 16, "n_destroyed": 14, "frac_destroyed": 0.88, "est_population": 321, "destroyed": true, "settlement_id": "AOI05-S10", "access_status": "destroyed", "route_note": "Settlement within/majority-within mapped hazard extent", "route_length_m": null, "place_name": null, "name_match_dist_m": null, "municipality": "Bidur", "res_match_dist_m": 0, "aoi": "AOI05", "aoi_name": "Phosretar" }, "geometry": { "type": "Point", "coordinates": [ 85.089333002731763, 27.856699250612277 ] } },
{ "type": "Feature", "properties": { "fid": 79, "cluster": 62, "n_buildings": 15, "n_destroyed": 8, "frac_destroyed": 0.53, "est_population": 301, "destroyed": true, "settlement_id": "AOI05-S11", "access_status": "destroyed", "route_note": "Settlement within/majority-within mapped hazard extent", "route_length_m": null, "place_name": null, "name_match_dist_m": null, "municipality": "Bidur", "res_match_dist_m": 0, "aoi": "AOI05", "aoi_name": "Phosretar" }, "geometry": { "type": "Point", "coordinates": [ 85.092390597379008, 27.859129243596865 ] } },
{ "type": "Feature", "properties": { "fid": 80, "cluster": 7, "n_buildings": 14, "n_destroyed": 3, "frac_destroyed": 0.21, "est_population": 281, "destroyed": false, "settlement_id": "AOI05-S12", "access_status": "foot_access_only", "route_note": "Connected via cart track/trail network to AOI boundary (2772 m)", "route_length_m": "3127.8189321316004", "place_name": "Mastar Land Pooling Area", "name_match_dist_m": null, "municipality": "Galchhi", "res_match_dist_m": 0, "aoi": "AOI05", "aoi_name": "Phosretar" }, "geometry": { "type": "Point", "coordinates": [ 84.96135345446875, 27.815623812223517 ] } },
{ "type": "Feature", "properties": { "fid": 81, "cluster": 40, "n_buildings": 8, "n_destroyed": 3, "frac_destroyed": 0.38, "est_population": 161, "destroyed": true, "settlement_id": "AOI05-S13", "access_status": "destroyed", "route_note": "Settlement within/majority-within mapped hazard extent", "route_length_m": null, "place_name": null, "name_match_dist_m": null, "municipality": "Bidur", "res_match_dist_m": 15, "aoi": "AOI05", "aoi_name": "Phosretar" }, "geometry": { "type": "Point", "coordinates": [ 85.068551621182507, 27.853594821218014 ] } },
{ "type": "Feature", "properties": { "fid": 82, "cluster": 28, "n_buildings": 6, "n_destroyed": 0, "frac_destroyed": 0.0, "est_population": 120, "destroyed": false, "settlement_id": "AOI05-S14", "access_status": "foot_access_only", "route_note": "Connected via cart track/trail network to AOI boundary (394 m)", "route_length_m": "417.2723884169442", "place_name": null, "name_match_dist_m": null, "municipality": "Belkotgadhi", "res_match_dist_m": 21, "aoi": "AOI05", "aoi_name": "Phosretar" }, "geometry": { "type": "Point", "coordinates": [ 85.013892535590216, 27.810871560247605 ] } },
{ "type": "Feature", "properties": { "fid": 83, "cluster": 56, "n_buildings": 6, "n_destroyed": 1, "frac_destroyed": 0.17, "est_population": 120, "destroyed": false, "settlement_id": "AOI05-S15", "access_status": "cut_off", "route_note": "No surviving mapped road/track connects this settlement to the AOI boundary", "route_length_m": null, "place_name": null, "name_match_dist_m": null, "municipality": "Bidur", "res_match_dist_m": 0, "aoi": "AOI05", "aoi_name": "Phosretar" }, "geometry": { "type": "Point", "coordinates": [ 85.081635657615095, 27.857521793640402 ] } },
{ "type": "Feature", "properties": { "fid": 84, "cluster": 34, "n_buildings": 6, "n_destroyed": 0, "frac_destroyed": 0.0, "est_population": 120, "destroyed": false, "settlement_id": "AOI05-S16", "access_status": "cut_off", "route_note": "No surviving mapped road/track connects this settlement to the AOI boundary", "route_length_m": null, "place_name": "Phosretar", "name_match_dist_m": null, "municipality": "Belkotgadhi", "res_match_dist_m": 0, "aoi": "AOI05", "aoi_name": "Phosretar" }, "geometry": { "type": "Point", "coordinates": [ 85.020251499300414, 27.832454968487841 ] } },
{ "type": "Feature", "properties": { "fid": 85, "cluster": 25, "n_buildings": 6, "n_destroyed": 0, "frac_destroyed": 0.0, "est_population": 120, "destroyed": false, "settlement_id": "AOI05-S17", "access_status": "cut_off", "route_note": "No surviving mapped road/track connects this settlement to the AOI boundary", "route_length_m": null, "place_name": null, "name_match_dist_m": null, "municipality": "Belkotgadhi", "res_match_dist_m": 272, "aoi": "AOI05", "aoi_name": "Phosretar" }, "geometry": { "type": "Point", "coordinates": [ 85.012140838434561, 27.808845271748872 ] } },
{ "type": "Feature", "properties": { "fid": 86, "cluster": 14, "n_buildings": 5, "n_destroyed": 0, "frac_destroyed": 0.0, "est_population": 100, "destroyed": false, "settlement_id": "AOI05-S18", "access_status": "road_accessible", "route_note": "Connected via vehicle road network to AOI boundary (5099 m)", "route_length_m": "5195.1221748527805", "place_name": null, "name_match_dist_m": null, "municipality": "Galchhi", "res_match_dist_m": 321, "aoi": "AOI05", "aoi_name": "Phosretar" }, "geometry": { "type": "Point", "coordinates": [ 84.969589018744898, 27.804453666916121 ] } },
{ "type": "Feature", "properties": { "fid": 87, "cluster": 24, "n_buildings": 5, "n_destroyed": 0, "frac_destroyed": 0.0, "est_population": 100, "destroyed": false, "settlement_id": "AOI05-S19", "access_status": "cut_off", "route_note": "No surviving mapped road/track connects this settlement to the AOI boundary", "route_length_m": null, "place_name": null, "name_match_dist_m": null, "municipality": "Galchhi", "res_match_dist_m": 266, "aoi": "AOI05", "aoi_name": "Phosretar" }, "geometry": { "type": "Point", "coordinates": [ 85.006244375493452, 27.805881556708314 ] } },
{ "type": "Feature", "properties": { "fid": 88, "cluster": 47, "n_buildings": 5, "n_destroyed": 5, "frac_destroyed": 1.0, "est_population": 100, "destroyed": true, "settlement_id": "AOI05-S20", "access_status": "destroyed", "route_note": "Settlement within/majority-within mapped hazard extent", "route_length_m": null, "place_name": null, "name_match_dist_m": null, "municipality": "Tarakeshwor", "res_match_dist_m": 0, "aoi": "AOI05", "aoi_name": "Phosretar" }, "geometry": { "type": "Point", "coordinates": [ 85.06302987397487, 27.860293824367222 ] } },
{ "type": "Feature", "properties": { "fid": 89, "cluster": 27, "n_buildings": 5, "n_destroyed": 0, "frac_destroyed": 0.0, "est_population": 100, "destroyed": false, "settlement_id": "AOI05-S21", "access_status": "foot_access_only", "route_note": "Connected via cart track/trail network to AOI boundary (81 m)", "route_length_m": "74.83281572999748", "place_name": null, "name_match_dist_m": null, "municipality": "Belkotgadhi", "res_match_dist_m": 166, "aoi": "AOI05", "aoi_name": "Phosretar" }, "geometry": { "type": "Point", "coordinates": [ 85.016416183965461, 27.810302700687853 ] } },
{ "type": "Feature", "properties": { "fid": 90, "cluster": 13, "n_buildings": 4, "n_destroyed": 0, "frac_destroyed": 0.0, "est_population": 80, "destroyed": false, "settlement_id": "AOI05-S22", "access_status": "road_accessible", "route_note": "Connected via vehicle road network to AOI boundary (4730 m)", "route_length_m": "4801.8824565014265", "place_name": null, "name_match_dist_m": null, "municipality": "Galchhi", "res_match_dist_m": 433, "aoi": "AOI05", "aoi_name": "Phosretar" }, "geometry": { "type": "Point", "coordinates": [ 84.971079229863193, 27.802452650029721 ] } },
{ "type": "Feature", "properties": { "fid": 91, "cluster": 20, "n_buildings": 4, "n_destroyed": 3, "frac_destroyed": 0.75, "est_population": 80, "destroyed": true, "settlement_id": "AOI05-S23", "access_status": "destroyed", "route_note": "Settlement within/majority-within mapped hazard extent", "route_length_m": null, "place_name": null, "name_match_dist_m": null, "municipality": "Galchhi", "res_match_dist_m": 120, "aoi": "AOI05", "aoi_name": "Phosretar" }, "geometry": { "type": "Point", "coordinates": [ 85.001535882371613, 27.800993167585226 ] } },
{ "type": "Feature", "properties": { "fid": 92, "cluster": 5, "n_buildings": 4, "n_destroyed": 1, "frac_destroyed": 0.25, "est_population": 80, "destroyed": false, "settlement_id": "AOI05-S24", "access_status": "foot_access_only", "route_note": "Connected via cart track/trail network to AOI boundary (2034 m)", "route_length_m": "2303.3525953196045", "place_name": "Mastar Land Pooling Area", "name_match_dist_m": null, "municipality": "Galchhi", "res_match_dist_m": 384, "aoi": "AOI05", "aoi_name": "Phosretar" }, "geometry": { "type": "Point", "coordinates": [ 84.967860415112668, 27.809738595143717 ] } },
{ "type": "Feature", "properties": { "fid": 93, "cluster": 0, "n_buildings": 4, "n_destroyed": 4, "frac_destroyed": 1.0, "est_population": 80, "destroyed": true, "settlement_id": "AOI05-S25", "access_status": "destroyed", "route_note": "Settlement within/majority-within mapped hazard extent", "route_length_m": null, "place_name": "Adamghat", "name_match_dist_m": 483.0, "municipality": "Galchhi", "res_match_dist_m": 38, "aoi": "AOI05", "aoi_name": "Phosretar" }, "geometry": { "type": "Point", "coordinates": [ 84.947067204405869, 27.812378005564781 ] } },
{ "type": "Feature", "properties": { "fid": 94, "cluster": 48, "n_buildings": 4, "n_destroyed": 4, "frac_destroyed": 1.0, "est_population": 80, "destroyed": true, "settlement_id": "AOI05-S26", "access_status": "destroyed", "route_note": "Settlement within/majority-within mapped hazard extent", "route_length_m": null, "place_name": null, "name_match_dist_m": null, "municipality": "Tarakeshwor", "res_match_dist_m": 173, "aoi": "AOI05", "aoi_name": "Phosretar" }, "geometry": { "type": "Point", "coordinates": [ 85.065251997417221, 27.860588390098634 ] } },
{ "type": "Feature", "properties": { "fid": 95, "cluster": 64, "n_buildings": 4, "n_destroyed": 4, "frac_destroyed": 1.0, "est_population": 80, "destroyed": true, "settlement_id": "AOI05-S27", "access_status": "destroyed", "route_note": "Settlement within/majority-within mapped hazard extent", "route_length_m": null, "place_name": null, "name_match_dist_m": null, "municipality": "Bidur", "res_match_dist_m": 184, "aoi": "AOI05", "aoi_name": "Phosretar" }, "geometry": { "type": "Point", "coordinates": [ 85.089339047285918, 27.861625567665623 ] } },
{ "type": "Feature", "properties": { "fid": 96, "cluster": 23, "n_buildings": 4, "n_destroyed": 0, "frac_destroyed": 0.0, "est_population": 80, "destroyed": false, "settlement_id": "AOI05-S28", "access_status": "foot_access_only", "route_note": "Connected via cart track/trail network to AOI boundary (1406 m)", "route_length_m": "1539.770960281176", "place_name": null, "name_match_dist_m": null, "municipality": "Galchhi", "res_match_dist_m": 378, "aoi": "AOI05", "aoi_name": "Phosretar" }, "geometry": { "type": "Point", "coordinates": [ 85.009645148102152, 27.804738436422419 ] } },
{ "type": "Feature", "properties": { "fid": 97, "cluster": 19, "n_buildings": 3, "n_destroyed": 0, "frac_destroyed": 0.0, "est_population": 60, "destroyed": false, "settlement_id": "AOI05-S29", "access_status": "foot_access_only", "route_note": "Connected via cart track/trail network to AOI boundary (2512 m)", "route_length_m": "2554.4335328722655", "place_name": null, "name_match_dist_m": null, "municipality": "Galchhi", "res_match_dist_m": 687, "aoi": "AOI05", "aoi_name": "Phosretar" }, "geometry": { "type": "Point", "coordinates": [ 84.989395543327632, 27.806368716673077 ] } },
{ "type": "Feature", "properties": { "fid": 98, "cluster": 8, "n_buildings": 3, "n_destroyed": 0, "frac_destroyed": 0.0, "est_population": 60, "destroyed": true, "settlement_id": "AOI05-S30", "access_status": "destroyed", "route_note": "Settlement within/majority-within mapped hazard extent", "route_length_m": null, "place_name": "Mastar Land Pooling Area", "name_match_dist_m": null, "municipality": "Galchhi", "res_match_dist_m": 124, "aoi": "AOI05", "aoi_name": "Phosretar" }, "geometry": { "type": "Point", "coordinates": [ 84.961917950235019, 27.817327256857464 ] } },
{ "type": "Feature", "properties": { "fid": 99, "cluster": 12, "n_buildings": 3, "n_destroyed": 2, "frac_destroyed": 0.67, "est_population": 60, "destroyed": true, "settlement_id": "AOI05-S31", "access_status": "destroyed", "route_note": "Settlement within/majority-within mapped hazard extent", "route_length_m": null, "place_name": "MaheshDovan", "name_match_dist_m": 151.0, "municipality": "Galchhi", "res_match_dist_m": 165, "aoi": "AOI05", "aoi_name": "Phosretar" }, "geometry": { "type": "Point", "coordinates": [ 84.981356646904814, 27.801742786776472 ] } },
{ "type": "Feature", "properties": { "fid": 100, "cluster": 58, "n_buildings": 3, "n_destroyed": 3, "frac_destroyed": 1.0, "est_population": 60, "destroyed": true, "settlement_id": "AOI05-S32", "access_status": "destroyed", "route_note": "Settlement within/majority-within mapped hazard extent", "route_length_m": null, "place_name": null, "name_match_dist_m": null, "municipality": "Bidur", "res_match_dist_m": 8, "aoi": "AOI05", "aoi_name": "Phosretar" }, "geometry": { "type": "Point", "coordinates": [ 85.087341247851668, 27.854371481588021 ] } },
{ "type": "Feature", "properties": { "fid": 101, "cluster": 60, "n_buildings": 3, "n_destroyed": 3, "frac_destroyed": 1.0, "est_population": 60, "destroyed": true, "settlement_id": "AOI05-S33", "access_status": "destroyed", "route_note": "Settlement within/majority-within mapped hazard extent", "route_length_m": null, "place_name": null, "name_match_dist_m": null, "municipality": "Bidur", "res_match_dist_m": 120, "aoi": "AOI05", "aoi_name": "Phosretar" }, "geometry": { "type": "Point", "coordinates": [ 85.086721609995578, 27.857258873379287 ] } },
{ "type": "Feature", "properties": { "fid": 102, "cluster": 63, "n_buildings": 3, "n_destroyed": 3, "frac_destroyed": 1.0, "est_population": 60, "destroyed": true, "settlement_id": "AOI05-S34", "access_status": "destroyed", "route_note": "Settlement within/majority-within mapped hazard extent", "route_length_m": null, "place_name": null, "name_match_dist_m": null, "municipality": "Bidur", "res_match_dist_m": 44, "aoi": "AOI05", "aoi_name": "Phosretar" }, "geometry": { "type": "Point", "coordinates": [ 85.096695790146228, 27.860889683566711 ] } },
{ "type": "Feature", "properties": { "fid": 103, "cluster": 49, "n_buildings": 3, "n_destroyed": 3, "frac_destroyed": 1.0, "est_population": 60, "destroyed": true, "settlement_id": "AOI05-S35", "access_status": "destroyed", "route_note": "Settlement within/majority-within mapped hazard extent", "route_length_m": null, "place_name": null, "name_match_dist_m": null, "municipality": "Bidur", "res_match_dist_m": 170, "aoi": "AOI05", "aoi_name": "Phosretar" }, "geometry": { "type": "Point", "coordinates": [ 85.075887409737888, 27.852629830041788 ] } },
{ "type": "Feature", "properties": { "fid": 104, "cluster": 44, "n_buildings": 3, "n_destroyed": 3, "frac_destroyed": 1.0, "est_population": 60, "destroyed": true, "settlement_id": "AOI05-S36", "access_status": "destroyed", "route_note": "Settlement within/majority-within mapped hazard extent", "route_length_m": null, "place_name": null, "name_match_dist_m": null, "municipality": "Tarakeshwor", "res_match_dist_m": 0, "aoi": "AOI05", "aoi_name": "Phosretar" }, "geometry": { "type": "Point", "coordinates": [ 85.060177356699285, 27.858744196722416 ] } },
{ "type": "Feature", "properties": { "fid": 105, "cluster": 38, "n_buildings": 3, "n_destroyed": 3, "frac_destroyed": 1.0, "est_population": 60, "destroyed": true, "settlement_id": "AOI05-S37", "access_status": "destroyed", "route_note": "Settlement within/majority-within mapped hazard extent", "route_length_m": null, "place_name": "Phosretar", "name_match_dist_m": null, "municipality": "Belkotgadhi", "res_match_dist_m": 204, "aoi": "AOI05", "aoi_name": "Phosretar" }, "geometry": { "type": "Point", "coordinates": [ 85.021931826831135, 27.834500880063164 ] } },
{ "type": "Feature", "properties": { "fid": 106, "cluster": 39, "n_buildings": 3, "n_destroyed": 3, "frac_destroyed": 1.0, "est_population": 60, "destroyed": true, "settlement_id": "AOI05-S38", "access_status": "destroyed", "route_note": "Settlement within/majority-within mapped hazard extent", "route_length_m": null, "place_name": null, "name_match_dist_m": null, "municipality": "Belkotgadhi", "res_match_dist_m": 128, "aoi": "AOI05", "aoi_name": "Phosretar" }, "geometry": { "type": "Point", "coordinates": [ 85.02191230002569, 27.840508583509447 ] } },
{ "type": "Feature", "properties": { "fid": 107, "cluster": 33, "n_buildings": 3, "n_destroyed": 1, "frac_destroyed": 0.33, "est_population": 60, "destroyed": false, "settlement_id": "AOI05-S39", "access_status": "road_accessible", "route_note": "Connected via vehicle road network to AOI boundary (396 m)", "route_length_m": "400.62389682047296", "place_name": "Phosretar", "name_match_dist_m": null, "municipality": "Belkotgadhi", "res_match_dist_m": 23, "aoi": "AOI05", "aoi_name": "Phosretar" }, "geometry": { "type": "Point", "coordinates": [ 85.018959586996388, 27.830547717215978 ] } },
{ "type": "Feature", "properties": { "fid": 108, "cluster": 45, "n_buildings": 3, "n_destroyed": 3, "frac_destroyed": 1.0, "est_population": 60, "destroyed": true, "settlement_id": "AOI05-S40", "access_status": "destroyed", "route_note": "Settlement within/majority-within mapped hazard extent", "route_length_m": null, "place_name": null, "name_match_dist_m": null, "municipality": "Tarakeshwor", "res_match_dist_m": 0, "aoi": "AOI05", "aoi_name": "Phosretar" }, "geometry": { "type": "Point", "coordinates": [ 85.057304206057168, 27.859654583495562 ] } },
{ "type": "Feature", "properties": { "fid": 109, "cluster": 31, "n_buildings": 2, "n_destroyed": 2, "frac_destroyed": 1.0, "est_population": 40, "destroyed": true, "settlement_id": "AOI05-S41", "access_status": "destroyed", "route_note": "Settlement within/majority-within mapped hazard extent", "route_length_m": null, "place_name": "KapraGhari", "name_match_dist_m": null, "municipality": "Belkotgadhi", "res_match_dist_m": 102, "aoi": "AOI05", "aoi_name": "Phosretar" }, "geometry": { "type": "Point", "coordinates": [ 85.019357528901011, 27.826439910245405 ] } },
{ "type": "Feature", "properties": { "fid": 110, "cluster": 10, "n_buildings": 2, "n_destroyed": 0, "frac_destroyed": 0.0, "est_population": 40, "destroyed": true, "settlement_id": "AOI05-S42", "access_status": "destroyed", "route_note": "Settlement within/majority-within mapped hazard extent", "route_length_m": null, "place_name": "Mastar Land Pooling Area", "name_match_dist_m": null, "municipality": "Galchhi", "res_match_dist_m": 340, "aoi": "AOI05", "aoi_name": "Phosretar" }, "geometry": { "type": "Point", "coordinates": [ 84.957364574999346, 27.818910265000046 ] } },
{ "type": "Feature", "properties": { "fid": 111, "cluster": 30, "n_buildings": 2, "n_destroyed": 2, "frac_destroyed": 1.0, "est_population": 40, "destroyed": true, "settlement_id": "AOI05-S43", "access_status": "destroyed", "route_note": "Settlement within/majority-within mapped hazard extent", "route_length_m": null, "place_name": "KapraGhari", "name_match_dist_m": null, "municipality": "Belkotgadhi", "res_match_dist_m": 74, "aoi": "AOI05", "aoi_name": "Phosretar" }, "geometry": { "type": "Point", "coordinates": [ 85.019105669506573, 27.824036140133803 ] } },
{ "type": "Feature", "properties": { "fid": 112, "cluster": 55, "n_buildings": 2, "n_destroyed": 1, "frac_destroyed": 0.5, "est_population": 40, "destroyed": true, "settlement_id": "AOI05-S44", "access_status": "destroyed", "route_note": "Settlement within/majority-within mapped hazard extent", "route_length_m": null, "place_name": null, "name_match_dist_m": null, "municipality": "Bidur", "res_match_dist_m": 50, "aoi": "AOI05", "aoi_name": "Phosretar" }, "geometry": { "type": "Point", "coordinates": [ 85.075019349972607, 27.854602375238276 ] } },
{ "type": "Feature", "properties": { "fid": 113, "cluster": 53, "n_buildings": 2, "n_destroyed": 2, "frac_destroyed": 1.0, "est_population": 40, "destroyed": true, "settlement_id": "AOI05-S45", "access_status": "destroyed", "route_note": "Settlement within/majority-within mapped hazard extent", "route_length_m": null, "place_name": null, "name_match_dist_m": null, "municipality": "Bidur", "res_match_dist_m": 182, "aoi": "AOI05", "aoi_name": "Phosretar" }, "geometry": { "type": "Point", "coordinates": [ 85.084767916182571, 27.854880320343401 ] } },
{ "type": "Feature", "properties": { "fid": 114, "cluster": 50, "n_buildings": 2, "n_destroyed": 2, "frac_destroyed": 1.0, "est_population": 40, "destroyed": true, "settlement_id": "AOI05-S46", "access_status": "destroyed", "route_note": "Settlement within/majority-within mapped hazard extent", "route_length_m": null, "place_name": null, "name_match_dist_m": null, "municipality": "Bidur", "res_match_dist_m": 60, "aoi": "AOI05", "aoi_name": "Phosretar" }, "geometry": { "type": "Point", "coordinates": [ 85.077194544993432, 27.852400045001279 ] } },
{ "type": "Feature", "properties": { "fid": 115, "cluster": 2, "n_buildings": 1, "n_destroyed": 1, "frac_destroyed": 1.0, "est_population": 20, "destroyed": true, "settlement_id": "AOI05-S47", "access_status": "destroyed", "route_note": "Settlement within/majority-within mapped hazard extent", "route_length_m": null, "place_name": null, "name_match_dist_m": null, "municipality": "Galchhi", "res_match_dist_m": 140, "aoi": "AOI05", "aoi_name": "Phosretar" }, "geometry": { "type": "Point", "coordinates": [ 84.94819235, 27.8153438 ] } },
{ "type": "Feature", "properties": { "fid": 116, "cluster": 18, "n_buildings": 1, "n_destroyed": 1, "frac_destroyed": 1.0, "est_population": 20, "destroyed": true, "settlement_id": "AOI05-S48", "access_status": "destroyed", "route_note": "Settlement within/majority-within mapped hazard extent", "route_length_m": null, "place_name": null, "name_match_dist_m": null, "municipality": "Galchhi", "res_match_dist_m": 366, "aoi": "AOI05", "aoi_name": "Phosretar" }, "geometry": { "type": "Point", "coordinates": [ 84.98636818, 27.80450275 ] } },
{ "type": "Feature", "properties": { "fid": 117, "cluster": 46, "n_buildings": 1, "n_destroyed": 1, "frac_destroyed": 1.0, "est_population": 20, "destroyed": true, "settlement_id": "AOI05-S49", "access_status": "destroyed", "route_note": "Settlement within/majority-within mapped hazard extent", "route_length_m": null, "place_name": null, "name_match_dist_m": null, "municipality": "Tarakeshwor", "res_match_dist_m": 339, "aoi": "AOI05", "aoi_name": "Phosretar" }, "geometry": { "type": "Point", "coordinates": [ 85.06697055, 27.86004081999998 ] } },
{ "type": "Feature", "properties": { "fid": 118, "cluster": 42, "n_buildings": 1, "n_destroyed": 1, "frac_destroyed": 1.0, "est_population": 20, "destroyed": true, "settlement_id": "AOI05-S50", "access_status": "destroyed", "route_note": "Settlement within/majority-within mapped hazard extent", "route_length_m": null, "place_name": null, "name_match_dist_m": null, "municipality": "Belkotgadhi", "res_match_dist_m": 109, "aoi": "AOI05", "aoi_name": "Phosretar" }, "geometry": { "type": "Point", "coordinates": [ 85.05879991, 27.85750824 ] } },
{ "type": "Feature", "properties": { "fid": 119, "cluster": 43, "n_buildings": 1, "n_destroyed": 1, "frac_destroyed": 1.0, "est_population": 20, "destroyed": true, "settlement_id": "AOI05-S51", "access_status": "destroyed", "route_note": "Settlement within/majority-within mapped hazard extent", "route_length_m": null, "place_name": null, "name_match_dist_m": null, "municipality": "Tarakeshwor", "res_match_dist_m": 264, "aoi": "AOI05", "aoi_name": "Phosretar" }, "geometry": { "type": "Point", "coordinates": [ 85.0654298, 27.85852649 ] } },
{ "type": "Feature", "properties": { "fid": 120, "cluster": 36, "n_buildings": 1, "n_destroyed": 1, "frac_destroyed": 1.0, "est_population": 20, "destroyed": true, "settlement_id": "AOI05-S52", "access_status": "destroyed", "route_note": "Settlement within/majority-within mapped hazard extent", "route_length_m": null, "place_name": "Pimaltar", "name_match_dist_m": null, "municipality": "Belkotgadhi", "res_match_dist_m": 31, "aoi": "AOI05", "aoi_name": "Phosretar" }, "geometry": { "type": "Point", "coordinates": [ 85.0185755, 27.8352161 ] } },
{ "type": "Feature", "properties": { "fid": 121, "cluster": 41, "n_buildings": 1, "n_destroyed": 1, "frac_destroyed": 1.0, "est_population": 20, "destroyed": true, "settlement_id": "AOI05-S53", "access_status": "destroyed", "route_note": "Settlement within/majority-within mapped hazard extent", "route_length_m": null, "place_name": null, "name_match_dist_m": null, "municipality": "Belkotgadhi", "res_match_dist_m": 193, "aoi": "AOI05", "aoi_name": "Phosretar" }, "geometry": { "type": "Point", "coordinates": [ 85.05610113, 27.85421722 ] } },
{ "type": "Feature", "properties": { "fid": 122, "cluster": 51, "n_buildings": 1, "n_destroyed": 0, "frac_destroyed": 0.0, "est_population": 20, "destroyed": true, "settlement_id": "AOI05-S54", "access_status": "destroyed", "route_note": "Settlement within/majority-within mapped hazard extent", "route_length_m": null, "place_name": null, "name_match_dist_m": null, "municipality": "Bidur", "res_match_dist_m": 70, "aoi": "AOI05", "aoi_name": "Phosretar" }, "geometry": { "type": "Point", "coordinates": [ 85.0713747, 27.85304705 ] } },
{ "type": "Feature", "properties": { "fid": 123, "cluster": 57, "n_buildings": 1, "n_destroyed": 1, "frac_destroyed": 1.0, "est_population": 20, "destroyed": true, "settlement_id": "AOI05-S55", "access_status": "destroyed", "route_note": "Settlement within/majority-within mapped hazard extent", "route_length_m": null, "place_name": null, "name_match_dist_m": null, "municipality": "Bidur", "res_match_dist_m": 176, "aoi": "AOI05", "aoi_name": "Phosretar" }, "geometry": { "type": "Point", "coordinates": [ 85.06940981, 27.85929168 ] } }
]
}
